agency,location,latitude,longitude,formatted_address,place_id,types,street_number,route,locality,sublocality,administrative_area_level_1,administrative_area_level_2,country,postal_code
Abington Police Department,"Pennsylvania, USA",40.1198332,-75.1253492,"Abington, PA, USA",ChIJUb0uvFywxokRwg7H2Q7Qt-I,"locality,political",,,Abington,,Pennsylvania,Montgomery County,United States,
Afghan National Police,Afghanistan,33.93911,67.709953,Afghanistan,ChIJbQL_-LZu0TgReNqWvg1GtfM,"country,political",,,,,,,Afghanistan,
Albemarle County Police Department,"Virginia, USA",38.0049875,-78.51721040000001,"Albemarle County Office Building, 1600 5th St, Charlottesville, VA 22902, USA",ChIJCSn1gtWFs4kRzxFbFunNeqU,"establishment,point_of_interest,police",1600,5th Street,Charlottesville,,Virginia,Albemarle County,United States,22902
Albuquerque Police Department,"New Mexico, USA",35.0843859,-106.650422,"Albuquerque, NM, USA",ChIJe4MJ090KIocR_fbZuM7408A,"locality,political",,,Albuquerque,,New Mexico,Bernalillo County,United States,
Alexandria Police Department,"Virginia, USA",38.8048355,-77.0469214,"Alexandria, VA, USA",ChIJ8aukkz5NtokRLAHB24Ym9dc,"locality,political",,,Alexandria,,Virginia,,United States,
Altamonte Springs Police Department,"Florida, USA",28.6641896,-81.3593058,"175 Newburyport Ave, Altamonte Springs, FL 32701, USA",ChIJj0E3cu1x54gRwVj9r6nvbwo,"establishment,point_of_interest,police",175,Newburyport Avenue,Altamonte Springs,,Florida,Seminole County,United States,32701
Anaheim Police Department,"California, USA",33.830436,-117.9186154,"425 S Harbor Blvd, Anaheim, CA 92805, USA",ChIJcaKhxdfX3IARAf0_JhwAS6g,"establishment,point_of_interest,police",425,South Harbor Boulevard,Anaheim,,California,Orange County,United States,92805
Antioch Police Department,"California, USA",38.0161726,-121.8206108,"300 L St, Antioch, CA 94509, USA",ChIJn_51duZZhYAR_fg4HpteeRk,"establishment,point_of_interest,police",300,L Street,Antioch,,California,Contra Costa County,United States,94509
Appleton Police Department,"Wisconsin, USA",44.2603517,-88.41149539999999,"222 S Walnut St, Appleton, WI 54911, USA",ChIJL8Wu_Tm3A4gRn3jJo4j7NbY,"establishment,point_of_interest,police",222,South Walnut Street,Appleton,,Wisconsin,Outagamie County,United States,54911
Arizona Department of Public Safety,USA,34.0489281,-111.0937311,"Arizona, USA",ChIJaxhMy-sIK4cRcc3Bf7EnOUI,"administrative_area_level_1,political",,,,,Arizona,,United States,
Arlington County Police Department,"Virginia, USA",38.8897592,-77.0832557,"1425 N Courthouse Rd, Arlington, VA 22201, USA",ChIJw-bFa4q2t4kRIrGbC_p6eyg,"establishment,local_government_office,point_of_interest,police",1425,North Courthouse Road,Arlington,,Virginia,Arlington County,United States,22201
Arlington Police Department,"Texas, USA",32.735687,-97.1080656,"Arlington, TX, USA",ChIJ05gI5NJiToYRUVOgH6z2Xgs,"locality,political",,,Arlington,,Texas,Tarrant County,United States,
Arvada Police Department,"Colorado, USA",39.8033474,-105.087797,"8101 Ralston Rd, Arvada, CO 80002, USA",ChIJNWSRGSmGa4cR5wp_be5MI_A,"establishment,point_of_interest,police",8101,Ralston Road,Arvada,,Colorado,Jefferson County,United States,80002
Asheville Police Department,"North Carolina, USA",35.59493680000001,-82.5500069,"100 Court Plaza, Asheville, NC 28801, USA",ChIJET12y1nzWYgRMFiR1dcCWxw,"establishment,point_of_interest,police",100,Court Plaza,Asheville,,North Carolina,Buncombe County,United States,28801
Atlanta Police Department,"Georgia, USA",33.748752,-84.38768449999999,"Atlanta, GA, USA",ChIJjQmTaV0E9YgRC2MLmS_e_mY,"locality,political",,,Atlanta,,Georgia,Fulton County,United States,
Auburn Police Department,"Washington, USA",47.3070555,-122.2246385,"Auburn Justice Center, 340 E Main St, Auburn, WA 98002, USA",ChIJ2Tu3lnpYkFQRWALCSGRhWo0,"establishment,point_of_interest,police",340,East Main Street,Auburn,,Washington,King County,United States,98002
Aurora Police Department,"Colorado, USA",39.7294319,-104.8319195,"Aurora, CO, USA",ChIJmyu6IoZYbIcReOaii2jgQYQ,"locality,political",,,Aurora,,Colorado,Arapahoe County,United States,
Aurora Police Department,"Illinois, USA",41.7831701,-88.28697969999999,"1200 E Indian Trail Rd, Aurora, IL 60505, USA",ChIJicabyfj6DogRZlXf_IJASws,"establishment,local_government_office,point_of_interest",1200,East Indian Trail Road,Aurora,,Illinois,Kane County,United States,60505
Austin Police Department,"Texas, USA",30.267153,-97.7430608,"Austin, TX, USA",ChIJLwPMoJm1RIYRetVp1EtGm10,"locality,political",,,Austin,,Texas,Travis County,United States,
Avon & Somerset Constabulary,United Kingdom,51.45756,-2.59358,,,,,,,,,,,
Baltimore Police Department,"Maryland, USA",39.2903848,-76.6121893,"Baltimore, MD, USA",ChIJt4P01q4DyIkRWOcjQqiWSAQ,"locality,political",,,Baltimore,,Maryland,,United States,
Beaverton Police Department,"Oregon, USA",45.4758758,-122.806015,"6125 SW Hall Blvd, Beaverton, OR 97008, USA",ChIJAQAAAB8MlVQR6U187aXFlKc,"establishment,point_of_interest,police",6125,Southwest Hall Boulevard,Beaverton,,Oregon,Washington County,United States,97008
Bedfordshire Police,United Kingdom,52.1200114,-0.4931603,"Bedford Rd, Halsey Rd, Kempston, Bedford MK42 8AX, UK",ChIJdbW9zk6xd0gRMZ9_H_LUTaQ,"establishment,point_of_interest,police",,Halsey Road,Kempston,,England,Bedford,United Kingdom,MK42 8AX
Benton Police Department,"Arkansas, USA",34.5628934,-92.5850758,"100 S East St, Benton, AR 72015, USA",ChIJRybmvS5SzYcRL18k1nA5MRA,"establishment,point_of_interest,police",100,South East Street,Benton,,Arkansas,Saline County,United States,72015
Bermuda Police Service,Bermuda,32.3078,-64.7505,Bermuda,ChIJpbBohp4TLYoRvLiZLMf93zw,"country,political",,,,,,,Bermuda,
Boise Police Department,"Idaho, USA",43.6077117,-116.3016967,"City Hall West, 333 N Mark Stall Pl, Boise, ID 83704, USA",ChIJe-Rg4xVWrlQReOE_jBz35o4,"establishment,local_government_office,point_of_interest",333,North Mark Stall Place,Boise,,Idaho,Ada County,United States,83704
Boston Police Department,"Massachusetts, USA",42.3600825,-71.0588801,"Boston, MA, USA",ChIJGzE9DS1l44kRoOhiASS_fHg,"locality,political",,,Boston,,Massachusetts,Suffolk County,United States,
Boulder Police Department,"Colorado, USA",40.0177798,-105.2503787,"1805 33rd St, Boulder, CO 80301, USA",ChIJ5ffln9vta4cRykW-uid5AQE,"establishment,local_government_office,point_of_interest,police",1805,33rd Street,Boulder,,Colorado,Boulder County,United States,80301
Bridgeport Police Department,"Connecticut, USA",41.1816184,-73.1925486,"300 Congress St, Bridgeport, CT 06604, USA",ChIJAzhBu3oO6IkRs3_91bRrfQo,"establishment,point_of_interest,police",300,Congress Street,Bridgeport,,Connecticut,Fairfield County,United States,06604
British Transport Police,United Kingdom,55.378051,-3.435973,United Kingdom,ChIJqZHHQhE7WgIReiWIMkOg-MQ,"country,political",,,,,,,United Kingdom,
Broken Arrow Police Department,"Oklahoma, USA",36.0628961,-95.7813885,"1101 N 6th St, Broken Arrow, OK 74012, USA",ChIJ5dtXG6DTJRUR_QP6IVu-6Gk,"establishment,point_of_interest,police",1101,North 6th Street,Broken Arrow,,Oklahoma,Tulsa County,United States,74012
Brooklyn Center Police Department,"Minnesota, USA",45.07690669999999,-93.3005457,"6645 N Humboldt Ave, Brooklyn Center, MN 55430, USA",ChIJjZrf9kQws1IR7fk3ezHb5VQ,"establishment,point_of_interest,police",6645,North Humboldt Avenue,Brooklyn Center,,Minnesota,Hennepin County,United States,55430
Brooklyn Park Police Department,"Minnesota, USA",45.11001,-93.34982,"5400 85th Ave N, Brooklyn Park, MN 55443, USA",ChIJbycnIQU6s1IRnedjoBpw3fo,"establishment,point_of_interest,police",5400,85th Avenue North,Brooklyn Park,,Minnesota,Hennepin County,United States,55443
Broward County Sheriff's Office,"Florida, USA",26.190096,-80.365865,"Broward County, FL, USA",ChIJFUaCG35_2YgRFNYLv44fMaA,"administrative_area_level_2,political",,,,,Florida,Broward County,United States,
Bryan Police Department,"Texas, USA",30.6699783,-96.371088,"303 E 29th St, Bryan, TX 77803, USA",ChIJabvWpZiBRoYRTDwrwkiO8xE,"establishment,point_of_interest,police",303,East 29th Street,Bryan,,Texas,Brazos County,United States,77803
Buffalo Police Department,"New York, USA",42.88644679999999,-78.8783689,"Buffalo, NY, USA",ChIJoeXfUmES04kRcYEfGKUEI5g,"locality,political",,,Buffalo,,New York,Erie County,United States,
Burnsville Police Department,"Minnesota, USA",44.7677424,-93.2777226,"Burnsville, MN, USA",ChIJnXv6uF869ocR1IoSyf44U7M,"locality,political",,,Burnsville,,Minnesota,Dakota County,United States,
California Department of Alcoholic Beverage Control,USA,36.778261,-119.4179324,"California, USA",ChIJPV4oX_65j4ARVW8IJ6IJUYs,"administrative_area_level_1,political",,,,,California,,United States,
California Division of Law Enforcement,USA,36.778261,-119.4179324,"California, USA",ChIJPV4oX_65j4ARVW8IJ6IJUYs,"administrative_area_level_1,political",,,,,California,,United States,
California Highway Patrol,USA,36.778261,-119.4179324,"California, USA",ChIJPV4oX_65j4ARVW8IJ6IJUYs,"administrative_area_level_1,political",,,,,California,,United States,
Carabineros de Chile,Chile,-35.675147,-71.542969,Chile,ChIJL68lBEHFYpYRHbkCERPhBQU,"country,political",,,,,,,Chile,
Carol Stream Police Department,"Illinois, USA",41.9161375,-88.12210689999999,"500 N Gary Ave, Carol Stream, IL 60188, USA",ChIJ2Y96QiWrD4gRjTP3g_sbw6s,"establishment,local_government_office,point_of_interest,police",500,North Gary Avenue,Carol Stream,,Illinois,DuPage County,United States,60188
Carrollton Police Department,"Texas, USA",32.9765164,-96.8868105,"2025 E Jackson Rd, Carrollton, TX 75006, USA",ChIJU4llrXkmTIYRRryXxpO51SU,"establishment,point_of_interest,police",2025,East Jackson Road,Carrollton,,Texas,Dallas County,United States,75006
Casper Police Department,"Wyoming, USA",42.84870900000001,-106.2980824,"Casper, WY, USA",ChIJY3peyGWTYIcRUz40Fzn8zmk,"locality,political",,,Casper,,Wyoming,Natrona County,United States,
Central Connecticut State University,"Connecticut, USA",41.6931245,-72.7638508,"1615 Stanley St, New Britain, CT 06050, USA",ChIJpeAV62ay54kR-3E8Z-hkKqk,"establishment,point_of_interest,school,university",1615,Stanley Street,New Britain,,Connecticut,Hartford County,United States,06050
Champlin Police Department,"Minnesota, USA",45.1720199,-93.3939743,"11955 Champlin Dr, Champlin, MN 55316, USA",ChIJfe5yYjI5s1IRDVdndqABFZg,"establishment,point_of_interest,police",11955,Champlin Drive,Champlin,,Minnesota,Hennepin County,United States,55316
Charlotte-Mecklenburg Police Department,"North Carolina, USA",35.2227166,-80.8374925,"601 E Trade St, Charlotte, NC 28202, USA",ChIJk2CotiSgVogRdZLBI3pKKbY,"establishment,local_government_office,point_of_interest,police",601,East Trade Street,Charlotte,,North Carolina,Mecklenburg County,United States,28202
Chattanooga Police Department,"Tennessee, USA",35.0818542,-85.2632069,"3410 Amnicola Hwy, Chattanooga, TN 37406, USA",ChIJ1XNyTYRhYIgRoeHKnsWUn8s,"establishment,point_of_interest",3410,Amnicola Highway,Chattanooga,,Tennessee,Hamilton County,United States,37406
Cheektowaga Police Department,"New York, USA",42.9071477,-78.7542892,"Cheektowaga, NY, USA",ChIJi6c7nJ8M04kRMmBe5PUs3hk,"locality,political",,,Cheektowaga,,New York,Erie County,United States,
Chicago Police Department,"Illinois, USA",41.8781136,-87.6297982,"Chicago, IL, USA",ChIJ7cv00DwsDogRAMDACa2m4K8,"locality,political",,,Chicago,,Illinois,Cook County,United States,
Chico Police Department,"California, USA",39.7356275,-121.8153551,"1460 Humboldt Rd, Chico, CA 95928, USA",ChIJVaZuQNcng4ARSmpEFLUnauw,"establishment,point_of_interest,police",1460,Humboldt Road,Chico,,California,Butte County,United States,95928
Chula Vista Police Department,"California, USA",32.6400541,-117.0841955,"Chula Vista, CA, USA",ChIJz6rDZUVO2YAR0yuPS3O4zEY,"locality,political",,,Chula Vista,,California,San Diego County,United States,
Cincinnati Police Department,"Ohio, USA",39.1031182,-84.5120196,"Cincinnati, OH, USA",ChIJ-SE43rFRQIgRF5PA5It--2k,"locality,political",,,Cincinnati,,Ohio,Hamilton County,United States,
Citrus Heights Police Department,"California, USA",38.6805058,-121.2982606,"6315 Fountain Square Dr, Citrus Heights, CA 95621, USA",ChIJGcfJu1LemoAR-ZMbpARItHw,"establishment,point_of_interest,police",6315,Fountain Square Drive,Citrus Heights,,California,Sacramento County,United States,95621
Clearwater Police Department,"Florida, USA",27.9634791,-82.7972781,"645 Pierce St, Clearwater, FL 33756, USA",ChIJZYpqIufwwogRQIzyO9TKWJc,"establishment,point_of_interest,police",645,Pierce Street,Clearwater,,Florida,Pinellas County,United States,33756
Cleveland Police,United Kingdom,55.378051,-3.435973,United Kingdom,ChIJqZHHQhE7WgIReiWIMkOg-MQ,"country,political",,,,,,,United Kingdom,
Colombia National Police,Colombia,4.570868,-74.297333,Colombia,ChIJo5QVrjqkFY4RQKPy7wSaDZo,"country,political",,,,,,,Colombia,
Colorado Springs Police Department,"Colorado, USA",38.8242393,-104.8218762,"705 S Nevada Ave, Colorado Springs, CO 80903, USA",ChIJ0YQ-wCpFE4cRQjBSsl5f0wk,"establishment,point_of_interest,police",705,South Nevada Avenue,Colorado Springs,,Colorado,El Paso County,United States,80903
Concord Police Department,"California, USA",37.9779776,-122.0310733,"Concord, CA, USA",ChIJhczEaaxghYAR7_8flgRgQQ4,"locality,political",,,Concord,,California,Contra Costa County,United States,
Connecticut State Police,USA,41.6032207,-73.087749,"Connecticut, USA",ChIJpVER8hFT5okR5XBhBVttmq4,"administrative_area_level_1,political",,,,,Connecticut,,United States,
Conroe Police Department,"Texas, USA",30.3402083,-95.475406,"2300 Plantation Dr, Conroe, TX 77301, USA",ChIJXzn75EU5R4YRohW_KqgWcyk,"establishment,point_of_interest,police",2300,Plantation Drive,Conroe,,Texas,Montgomery County,United States,77301
Coral Springs Police Department,"Florida, USA",26.2641322,-80.2650774,"2801 Coral Springs Dr, Coral Springs, FL 33065, USA",ChIJf7gNsVoF2YgRc9_qMHAg18U,"establishment,local_government_office,point_of_interest,police",2801,Coral Springs Drive,Coral Springs,,Florida,Broward County,United States,33065
Cordele Police Department,"Georgia, USA",31.9635074,-83.7823938,"Cordele, GA 31015, USA",ChIJs_vRjDM78ogRKBrt9je16Xs,"locality,political",,,Cordele,,Georgia,Crisp County,United States,31015
Corvallis Police Department,"Oregon, USA",44.5645659,-123.2620435,"Corvallis, OR, USA",ChIJfdcUqp1AwFQRvsC9Io-ADdc,"locality,political",,,Corvallis,,Oregon,Benton County,United States,
Covington Police Department,"Kentucky, USA",39.0672624,-84.50625509999999,"1 Police Memorial Dr, Covington, KY 41014, USA",ChIJNyRAqCCxQYgRXAr3h8YzkUs,"establishment,point_of_interest",1,Police Memorial Drive,Covington,,Kentucky,Kenton County,United States,41014
Cuyahoga Metropolitan Housing Authority Police Department,"Cleveland, Ohio, USA",41.4883016,-81.6495727,"5715 Woodland Ave, Cleveland, OH 44104, USA",ChIJE8EJI_36MIgRl3rQEKzrr3Y,"establishment,point_of_interest,police",5715,Woodland Avenue,Cleveland,,Ohio,Cuyahoga County,United States,44104
Dayton Police Department,"Ohio, USA",39.758872,-84.1978085,"335 W Third St, Dayton, OH 45402, USA",ChIJTzsGwl1NP4YRjGSaA0bXjbQ,"establishment,point_of_interest,police",335,West Third Street,Dayton,,Ohio,Montgomery County,United States,45402
Delray Beach Police Department,"Florida, USA",26.4609043,-80.07645360000001,"300 W Atlantic Ave, Delray Beach, FL 33444, USA",ChIJ4wUQkuff2IgRjdqS1SPDCp8,"establishment,point_of_interest,police",300,West Atlantic Avenue,Delray Beach,,Florida,Palm Beach County,United States,33444
Delta Police Department,"British Columbia, Canada",49.09521549999999,-123.0264759,"Delta, BC, Canada",ChIJtwKI2-H8hVQRm63IwyoFr-c,"locality,political",,,Delta,,British Columbia,Metro Vancouver,Canada,
Denver Police Department,"Colorado, USA",39.7392358,-104.990251,"Denver, CO, USA",ChIJzxcfI6qAa4cR1jaKJ_j0jhE,"locality,political",,,Denver,,Colorado,Denver County,United States,
Detroit Housing Commission,"Michigan, USA",42.3338167,-83.03422239999999,"1301 E Jefferson Ave, Detroit, MI 48207, USA",ChIJpSrxZtYsO4gRdqI_OqUck5c,"establishment,local_government_office,point_of_interest",1301,East Jefferson Avenue,Detroit,,Michigan,Wayne County,United States,48207
Detroit Police Department,"Michigan, USA",42.331427,-83.0457538,"Detroit, MI, USA",ChIJdR3LEAHKJIgR0sS5NU6Gdlc,"locality,political",,,Detroit,,Michigan,Wayne County,United States,
Dorset Police,United Kingdom,55.378051,-3.435973,United Kingdom,ChIJqZHHQhE7WgIReiWIMkOg-MQ,"country,political",,,,,,,United Kingdom,
Dubai Police,United Arab Emirates,25.2048493,55.2707828,Dubai - United Arab Emirates,ChIJRcbZaklDXz4RYlEphFBu5r0,"locality,political",,,Dubai,,Dubai,,United Arab Emirates,
Dublin Police Department,"Ohio, USA",40.1006866,-83.1418181,"6565 Commerce Pkwy, Dublin, OH 43017, USA",ChIJefLrdTaTOIgRwZ-KC4WoVTo,"establishment,point_of_interest,police",6565,Commerce Parkway,Dublin,,Ohio,Franklin County,United States,43017
Duluth Police Department,"Minnesota, USA",46.8178565,-92.1291798,"2030 N Arlington Ave, Duluth, MN 55811, USA",ChIJ8UQdA5dSrlIRKRmfG8gM2vM,"establishment,point_of_interest,police",2030,North Arlington Avenue,Duluth,,Minnesota,St. Louis County,United States,55811
Durham Constabulary,United Kingdom,54.8533832,-1.8358105,"Consett DH8 5DL, UK",ChIJpaOCy5J9fkgRmxaHkPeW8kc,"establishment,point_of_interest,police",,,,,England,County Durham,United Kingdom,DH8 5DL
Durham Police Department,"North Carolina, USA",35.9948606,-78.8842044,"921 Holloway St, Durham, NC 27701, USA",ChIJj-a7UX3krIkRVvoraVG042w,"establishment,point_of_interest,police",921,Holloway Street,Durham,,North Carolina,Durham County,United States,27701
Durham Police Department,"New Hampshire, USA",43.1436165,-70.90726289999999,"86 Dover Rd, Durham, NH 03824, USA",ChIJm9MnPfaT4okR0FUUMnjf_cw,"establishment,point_of_interest,police",86,Dover Road,Durham,,New Hampshire,Strafford County,United States,03824
Durham Regional Police Service,"Ontario, Canada",51.253775,-85.3232139,"Ontario, Canada",ChIJrxNRX7IFzkwRCR5iKVZC-HA,"administrative_area_level_1,political",,,,,Ontario,,Canada,
Eau Claire Police Department,"Wisconsin, USA",44.80796220000001,-91.5036369,"721 Oxford Ave #1400, Eau Claire, WI 54703, USA",ChIJYYHCTfO9-IcRX04BGITHxlI,"establishment,point_of_interest",721,Oxford Avenue,Eau Claire,,Wisconsin,Eau Claire County,United States,54703
Edmonton Police Service,"Alberta, Canada",53.5460983,-113.4937266,"Edmonton, AB, Canada",ChIJI__egEUioFMRXRX2SgygH0E,"locality,political",,,Edmonton,,Alberta,,Canada,
El Monte Police Department,"California, USA",34.0717092,-118.0300444,"El Monte City Hall West / El Monte Police, 11333 Valley Blvd, El Monte, CA 91731, USA",ChIJLaDxja_QwoARFbO_8ciJz_w,"establishment,local_government_office,point_of_interest,police",11333,Valley Boulevard,El Monte,,California,Los Angeles County,United States,91731
El Paso County Sheriff's Office,"Texas, USA",31.811218,-106.25926,"3850 Justice St, El Paso, TX 79938, USA",ChIJhaIslXw5TIYRF1tD1uyTc1A,"establishment,local_government_office,point_of_interest,police",3850,Justice Street,El Paso,,Texas,El Paso County,United States,79938
El Paso Police Department,"Texas, USA",31.7834127,-106.4612383,"911 N Raynor St, El Paso, TX 79903, USA",ChIJ1RwsDJdZ54YRVJn_AwYHxvM,"establishment,point_of_interest,police",911,North Raynor Street,El Paso,,Texas,El Paso County,United States,79903
Escambia County Sheriff's Office,"Florida, USA",30.4422286,-87.2350242,"1700 W Leonard St, Pensacola, FL 32501, USA",ChIJn0Ty5HG_kIgRjwFPkOx5UmA,"establishment,local_government_office,point_of_interest,police",1700,West Leonard Street,Pensacola,,Florida,Escambia County,United States,32501
Essex Police,United Kingdom,51.9402838,1.2860421,"88 Main Rd, Harwich CO12 3LW, UK",ChIJq1cOWc922UcRubMwM4_5fgg,"establishment,point_of_interest,police",88,Main Road,,,England,Essex,United Kingdom,CO12 3LW
Eureka Police Department,"California, USA",40.80036399999999,-124.1692358,"604 C St, Eureka, CA 95501, USA",ChIJXc6V-mNV0VQR0k7ptLqSles,"establishment,point_of_interest,police",604,C Street,Eureka,,California,Humboldt County,United States,95501
Evanston Police Department,"Illinois, USA",42.04426360000001,-87.6840564,"1454 Elmwood Ave, Evanston, IL 60201, USA",ChIJdZvsvv3PD4gRUiIK2f6egrs,"establishment,point_of_interest,police",1454,Elmwood Avenue,Evanston,,Illinois,Cook County,United States,60201
Fayetteville Police Department,"North Carolina, USA",35.05429180000001,-78.8839782,"467 Hay St, Fayetteville, NC 28301, USA",ChIJ_-rgU9Vsq4kR7HkS31qFjMg,"establishment,point_of_interest,police",467,Hay Street,Fayetteville,,North Carolina,Cumberland County,United States,28301
Federal Way Police Department,"Washington, USA",47.3039377,-122.3262731,"33325 8th Ave S, Federal Way, WA 98003, USA",ChIJWYCoHKRXkFQRY_NRrXfVD9s,"establishment,point_of_interest,police",33325,8th Avenue South,Federal Way,,Washington,King County,United States,98003
Fontana Police Department,"California, USA",34.1015769,-117.4336924,"17005 Upland Ave, Fontana, CA 92335, USA",ChIJXRDjPIZMw4AReLe8DsrJc7A,"establishment,point_of_interest,police",17005,Upland Avenue,Fontana,,California,San Bernardino County,United States,92335
Fort Collins Police Services,"Colorado, USA",40.5573465,-105.0395774,"2221 S Timberline Rd, Fort Collins, CO 80525, USA",ChIJtT2i0jZLaYcRYtLToMfLb_k,"establishment,point_of_interest,police",2221,South Timberline Road,Fort Collins,,Colorado,Larimer County,United States,80525
Fort Lauderdale Police Department,"Florida, USA",26.1215059,-80.1588847,"1300 W Broward Blvd, Fort Lauderdale, FL 33312, USA",ChIJhQcIPuQA2YgRoTcOc5svqxk,"establishment,point_of_interest,police",1300,West Broward Boulevard,Fort Lauderdale,,Florida,Broward County,United States,33312
Fort Myers Police Department,"Florida, USA",26.6395169,-81.8682365,"2210 Widman Way, Fort Myers, FL 33901, USA",ChIJ_eyYmuFB24gRj-zxChAX_PE,"establishment,local_government_office,point_of_interest,police",2210,Widman Way,Fort Myers,,Florida,Lee County,United States,33901
Fort Worth Police Department,"Texas, USA",32.7554883,-97.3307658,"Fort Worth, TX, USA",ChIJrQfILRJuToYRvaxp3fiLr6Q,"locality,political",,,Fort Worth,,Texas,Tarrant County,United States,
Foyle District Command Police,"Londonderry, Northern Ireland, United Kingdom",54.9953543,-7.3174671,"Foyle St, Londonderry BT48, UK",ChIJZ8VpNIPhX0gRyjI-ZvPWjeM,route,,Foyle Street,,,Northern Ireland,Derry and Strabane,United Kingdom,BT48
Fremont Police Department,"California, USA",37.5527129,-121.9691376,"2000 Stevenson Blvd, Fremont, CA 94538, USA",ChIJIeLeKO3Aj4ARQmPg5jaJkus,"establishment,point_of_interest,police",2000,Stevenson Boulevard,Fremont,,California,Alameda County,United States,94538
Fresno County Sheriff's Department,"California, USA",36.7369053,-119.7897925,"2200 Fresno St, Fresno, CA 93721, USA",ChIJe1judCVelIARm-7XuUfH1ps,"establishment,local_government_office,point_of_interest,police",2200,Fresno Street,Fresno,,California,Fresno County,United States,93721
Fresno Police Department,"California, USA",36.7377981,-119.7871247,"Fresno, CA, USA",ChIJnU6eVOFdlIAREbijSWRAEns,"locality,political",,,Fresno,,California,Fresno County,United States,
Gainesville Police Department,"Texas, USA",33.6418966,-97.1469175,"201 Santa Fe St, Gainesville, TX 76240, USA",ChIJc3RHxX8BTYYRDzDmvf82Y18,"establishment,local_government_office,point_of_interest",201,Santa Fe Street,Gainesville,,Texas,Cooke County,United States,76240
Gaston County Police Department,"North Carolina, USA",35.262465,-81.1888036,"420 W Franklin Blvd, Gastonia, NC 28052, USA",ChIJl30Uiz7AVogRspENldEiuBE,"establishment,point_of_interest,police",420,West Franklin Boulevard,Gastonia,,North Carolina,Gaston County,United States,28052
Georgetown Police Services Division,"Texas, USA",30.6332618,-97.6779842,"Georgetown, TX, USA",ChIJ3_vaVP3VRIYRCTrAlN407GE,"locality,political",,,Georgetown,,Texas,Williamson County,United States,
Georgia State University Police Department,"Georgia, USA",33.754229,-84.3889669,"15 Edgewood Ave SE, Atlanta, GA 30303, USA",ChIJeTgTkoYD9YgRO1G5qF8XTYI,"establishment,point_of_interest,police",15,Edgewood Avenue Southeast,Atlanta,,Georgia,Fulton County,United States,30303
Glen Ridge Police Department,"New Jersey, USA",40.801704,-74.2043581,"3 Herman St, Glen Ridge, NJ 07028, USA",ChIJZ5eljTlVwokRSY9Lc9eQdck,"establishment,point_of_interest,police",3,Herman Street,Glen Ridge,,New Jersey,Essex County,United States,07028
Glendale Police Department,"Arizona, USA",33.537655,-112.1822647,"6835 N 57th Dr, Glendale, AZ 85301, USA",ChIJNdPnwxtrK4cRkhyOixNqgOY,"establishment,point_of_interest,police",6835,North 57th Drive,Glendale,,Arizona,Maricopa County,United States,85301
Glendale Police Department,"California, USA",34.1471336,-118.2489592,"131 N Isabel St, Glendale, CA 91206, USA",ChIJjSwzjADBwoAR8HYNRJ3Bsq0,"establishment,point_of_interest,police",131,North Isabel Street,Glendale,,California,Los Angeles County,United States,91206
Grammercy Police Department,"Louisiana, USA",30.047614,-90.689798,"111 E Main St, Gramercy, LA 70052, USA",ChIJC4sSE5UuIYYRX7bN4eG9Eec,"establishment,point_of_interest,police",111,East Main Street,Gramercy,,Louisiana,St. James Parish,United States,70052
Greater Manchester Police,United Kingdom,55.378051,-3.435973,United Kingdom,ChIJqZHHQhE7WgIReiWIMkOg-MQ,"country,political",,,,,,,United Kingdom,
Green Bay Police Department,"Wisconsin, USA",44.5112212,-88.01623970000001,"307 S Adams St, Green Bay, WI 54301, USA",ChIJ3bTpW8r6AogR4qrSrLniHhY,"establishment,point_of_interest,police",307,South Adams Street,Green Bay,,Wisconsin,Brown County,United States,54301
Gresham Police Department,"Oregon, USA",45.506591,-122.4357958,"1333 NW Eastman Pkwy, Gresham, OR 97030, USA",ChIJ46LzBomYlVQRh6N2bg-h7dg,"establishment,point_of_interest,police",1333,Northwest Eastman Parkway,Gresham,,Oregon,Multnomah County,United States,97030
Guàrdia Police de L'Hospitalet,Spain,41.3661865,2.1164942,"L'Hospitalet de Llobregat, Barcelona, Spain",ChIJFwMuZ-eYpBIR1QVMT5h6EjY,"locality,political",,,L'Hospitalet de Llobregat,,Catalonia,Barcelona,Spain,
Gulf Breeze Police Department,"Florida, USA",30.3602818,-87.1817818,"311 Fairpoint Dr, Gulf Breeze, FL 32561, USA",ChIJKdaYAOPHkIgRmEmtdfzGeL8,"establishment,local_government_office,point_of_interest",311,Fairpoint Drive,Gulf Breeze,,Florida,Santa Rosa County,United States,32561
Hamilton Police Service,"Ontario, Canada",43.2557206,-79.8711024,"Hamilton, ON, Canada",ChIJj3feJ2yYLIgRIQ7f2Fbuais,"locality,political",,,Hamilton,,Ontario,Hamilton,Canada,
Hamilton-Wentworth Regional Police,"Ontario, Canada",43.2535349,-79.8822883,"251 Duke St, Hamilton, ON L8P 2E2, Canada",ChIJKzsW_3CbLIgRZYbVeInKMIo,"establishment,point_of_interest",251,Duke Street,Hamilton,,Ontario,Hamilton,Canada,L8P 2E2
Hampshire Constabulary,United Kingdom,50.8735351,-1.2743738,"60-64 Bridge Rd, Sarisbury Green, Park Gate, Southampton SO31 7HN, UK",ChIJC2X67bZvdEgRZS5StZYkHWo,"establishment,point_of_interest,police",60-64,Bridge Road,Sarisbury Green,,England,Hampshire,United Kingdom,SO31 7HN
Hampton Police Division,"Virginia, USA",37.0298687,-76.34522179999999,"Hampton, VA, USA",ChIJ7ZVLmwGFuokRXXOEtSJCVkw,"locality,political",,,Hampton,,Virginia,,United States,
Harrison County Sheriff's Office,"West Virginia, USA",39.278796,-80.3394146,"301 W Main St # G25, Clarksburg, WV 26301, USA",ChIJ0dYSjrxpSogRv_4z7LkNaRc,"establishment,local_government_office,point_of_interest,police",301,West Main Street,Clarksburg,,West Virginia,Harrison County,United States,26301
Hayward Police Department,"California, USA",37.657604,-122.0971443,"300 W Winton Ave, Hayward, CA 94544, USA",ChIJGVcYEUORj4ARpdInXyEYM1c,"establishment,local_government_office,point_of_interest,police",300,West Winton Avenue,Hayward,,California,Alameda County,United States,94544
Healdsburg Police Department,"California, USA",38.6099123,-122.8689745,"238 Center St, Healdsburg, CA 95448, USA",ChIJe7WUFDEXhIARa868TOxOFm0,"establishment,point_of_interest,police",238,Center Street,Healdsburg,,California,Sonoma County,United States,95448
Henrico County Division of Police,"Virginia, USA",37.5059332,-77.3324425,"Henrico County, VA, USA",ChIJG6E4eCwRsYkRfeMcOlrlJc0,"administrative_area_level_2,political",,,,,Virginia,Henrico County,United States,
Her Majesty's Government Office West Midlands & Staffordshire Police,United Kingdom,52.4750743,-1.829833,"West Midlands, UK",ChIJ_dclMtSAcEgR5_O7OttvyI0,"administrative_area_level_2,political",,,,,England,West Midlands,United Kingdom,
Herndon Police Department,"Virginia, USA",38.9609429,-77.3718399,"397 Herndon Pkwy #300, Herndon, VA 20170, USA",ChIJy4V2cXE4tokRammiv5uCUV4,"establishment,point_of_interest,police",397,Herndon Parkway,Herndon,,Virginia,Fairfax County,United States,20170
Hertfordshire Constabulary,United Kingdom,51.7870979,-0.2172592,"Stanborough Rd, Welwyn Garden City AL8 6XF, UK",ChIJvah5CD2F2EcR4HXS1YxyZOc,"establishment,point_of_interest,police",,Stanborough Road,,,England,Hertfordshire,United Kingdom,AL8 6XF
High Point Police Department,"North Carolina, USA",35.94585259999999,-80.0345397,"1730 Westchester Dr, High Point, NC 27262, USA",ChIJX9IaG3gJU4gRStxhBQjtovE,"establishment,point_of_interest,police",1730,Westchester Drive,High Point,,North Carolina,Guilford County,United States,27262
Hollywood Police Department,"Florida, USA",26.0103964,-80.1747754,"3250 Hollywood Blvd, Hollywood, FL 33021, USA",ChIJETHHLK2r2YgRyRs9Jo07zgc,"establishment,point_of_interest,police",3250,Hollywood Boulevard,Hollywood,,Florida,Broward County,United States,33021
Home Office Police and Crime Standards Directorate,"London, United Kingdom",51.5072178,-0.1275862,"London, UK",ChIJdd4hrwug2EcRmSrV3Vo6llI,"locality,political",,,London,,England,Greater London,United Kingdom,
Honolulu Police Department,"Hawaiʻi, USA",21.3098845,-157.8581401,"Honolulu, HI, USA",ChIJTUbDjDsYAHwRbJen81_1KEs,"locality,political",,,Honolulu,,Hawaii,Honolulu County,United States,
Hopkins Police Department,"Minnesota, USA",44.9219312,-93.413502,"1010 1st St S, Hopkins, MN 55343, USA",ChIJMVg47CUg9ocRUpbNlANvPZs,"establishment,point_of_interest,police",1010,1st Street South,Hopkins,,Minnesota,Hennepin County,United States,55343
Houston Police Department,"Texas, USA",29.7600771,-95.3701108,"Houston, TX, USA",ChIJAYWNSLS4QIYROwVl894CDco,"locality,political",,,Houston,,Texas,Harris County,United States,
Humberside Police,United Kingdom,55.378051,-3.435973,United Kingdom,ChIJqZHHQhE7WgIReiWIMkOg-MQ,"country,political",,,,,,,United Kingdom,
Indian River County Sheriff's Office,"Florida, USA",27.6947732,-80.54384499999999,"Indian River County, FL, USA",ChIJkfXeA2dk3ogR5H4ds095lLU,"administrative_area_level_2,political",,,,,Florida,Indian River County,United States,
Indiana State Police,USA,40.5512165,-85.60236429999999,"Indiana, USA",ChIJHRv42bxQa4gRcuwyy84vEH4,"administrative_area_level_1,political",,,,,Indiana,,United States,
Indianapolis Metropolitan Police Department,"Indiana, USA",39.76909,-86.158018,"Indianapolis, IN, USA",ChIJA2p5p_9Qa4gRfOq5QPadjtY,"locality,political",,,Indianapolis,,Indiana,Marion County,United States,
Indio Police Department,"California, USA",33.7089757,-116.2160494,"46800 Jackson St, Indio, CA 92201, USA",ChIJwbytMJL32oAR8FuSfahoUDE,"establishment,point_of_interest,police",46800,Jackson Street,Indio,,California,Riverside County,United States,92201
"Ionnina, LLC","Mooresville, North Carolina, USA",35.5820319,-80.8140473,"Mooresville, NC, USA",ChIJBVB6l1hVUYgRYlTtfmsAQmc,"locality,political",,,Mooresville,,North Carolina,Iredell County,United States,
Irvine Police Department,"California, USA",33.6861924,-117.8262868,"1 Civic Center Plaza, Irvine, CA 92606, USA",ChIJ_SA7zijc3IARs8B1n0_7Bxw,"establishment,point_of_interest,police",1,Civic Center Plaza,Irvine,,California,Orange County,United States,92606
Irwindale Police Department,"California, USA",34.1047148,-117.9333513,"5050 N Irwindale Ave, Irwindale, CA 91706, USA",ChIJgQHLcgLYwoARQb8uf0Fihoc,"establishment,point_of_interest,police",5050,North Irwindale Avenue,Irwindale,,California,Los Angeles County,United States,91706
Isle of Man Constabulary,British Isles,54.236107,-4.548056,Isle of Man,ChIJ1YEuRDCFY0gRDeDw8bxbAuo,"country,political",,,,,,,Isle of Man,
Ithaca Police Department,"New York, USA",42.4439614,-76.5018807,"Ithaca, NY, USA",ChIJ94iv4IKB0IkRdM5upWgn5Qo,"locality,political",,,Ithaca,,New York,Tompkins County,United States,
Jacksonville Police Department,"Arkansas, USA",34.8807396,-92.126921,"1400 Marshall Rd, Jacksonville, AR 72076, USA",ChIJKccGUS9AIBURbVt0MLVyUfY,"establishment,point_of_interest,police",1400,Marshall Road,Jacksonville,,Arkansas,Pulaski County,United States,72076
Janesville Police Department,"Wisconsin, USA",42.6824652,-89.0273065,"100 N Jackson St, Janesville, WI 53548, USA",ChIJtUlXnZIZBogRcw4scyaSy4A,"establishment,point_of_interest,police",100,North Jackson Street,Janesville,,Wisconsin,Rock County,United States,53548
Johnson City Police Department,"Tennessee, USA",36.3134397,-82.3534727,"Johnson City, TN, USA",ChIJW6NBUdt8WogRy2MFfAwq5jw,"locality,political",,,Johnson City,,Tennessee,Washington County,United States,
Joliet Police Department,"Illinois, USA",41.5234428,-88.08529770000001,"150 W Washington St, Joliet, IL 60432, USA",ChIJP7_T2LVmDogRMeEbe6ELfUE,"establishment,point_of_interest,police",150,West Washington Street,Joliet,,Illinois,Will County,United States,60432
Joplin Police Department,"Missouri, USA",37.0890143,-94.5107174,"303 E 3rd St, Joplin, MO 64801, USA",ChIJQwY8Va97yIcRSZr921qJOzk,"establishment,point_of_interest,police",303,East 3rd Street,Joplin,,Missouri,Jasper County,United States,64801
Kankakee Police Department,"Illinois, USA",41.1214851,-87.861147,"385 E Oak St, Kankakee, IL 60901, USA",ChIJ3X7H4b_nDYgRfFqxEWI9fMk,"establishment,point_of_interest,police",385,East Oak Street,Kankakee,,Illinois,Kankakee County,United States,60901
Kansas City Police Department,"Missouri, USA",39.100029,-94.5769794,"1125 Locust St, Kansas City, MO 64106, USA",ChIJ6av_59f6wIcRNDn7iEjceWY,"establishment,point_of_interest,police",1125,Locust Street,Kansas City,,Missouri,Jackson County,United States,64106
Kern County Sheriff's Office,"California, USA",35.4204049,-119.0480609,"1350 Norris Rd, Bakersfield, CA 93308, USA",ChIJI7VEaJ5C6oARr8Dd1k1M8kA,"establishment,local_government_office,point_of_interest,police",1350,Norris Road,Bakersfield,,California,Kern County,United States,93308
King County Department of Public Safety,"Washington, USA",47.5480339,-121.9836029,"King County, WA, USA",ChIJN3gtg4xckFQRPuBki2urgOI,"administrative_area_level_2,political",,,,,Washington,King County,United States,
Knoxville Police Department,"Tennessee, USA",35.9606384,-83.9207392,"Knoxville, TN, USA",ChIJqULORiIWXIgRxTT1xNqS6ns,"locality,political",,,Knoxville,,Tennessee,Knox County,United States,
La Crosse Police Department,"Wisconsin, USA",43.8174126,-91.2304673,"Parking Ramp and Police Services, 605 17th St N, La Crosse, WI 54601, USA",ChIJiakbuxA2V0ARcSdcMZPxDAU,"establishment,point_of_interest,police",605,17th Street North,La Crosse,,Wisconsin,La Crosse County,United States,54601
Las Cruces Police Department,"New Mexico, USA",32.3169329,-106.7781667,"217 E Picacho Ave, Las Cruces, NM 88001, USA",ChIJAQSUvJs93oYRSUWjlyVmC1E,"establishment,local_government_office,point_of_interest,police",217,East Picacho Avenue,Las Cruces,,New Mexico,Doña Ana County,United States,88001
La Vista Police Department,"Nebraska, USA",41.1827764,-96.06097,"7701 S 96th St, La Vista, NE 68128, USA",ChIJ182txUmLk4cR0__eCjIEIHc,"establishment,point_of_interest,police",7701,South 96th Street,La Vista,,Nebraska,Sarpy County,United States,68128
Lakeville Police Department,"Minnesota, USA",44.68513129999999,-93.247913,"9237 183rd St W, Lakeville, MN 55044, USA",ChIJ7zeLZydFzYkRkX9MjttZWt8,"establishment,point_of_interest,police",9237,183rd Street West,Lakeville,,Minnesota,Dakota County,United States,55044
Lakewood Police Department,"Colorado, USA",39.7076132,-105.086006,"445 S Allison Pkwy, Lakewood, CO 80226, USA",ChIJhUjMtyOBa4cREHnpCgDBDB0,"establishment,local_government_office,point_of_interest,police",445,South Allison Parkway,Lakewood,,Colorado,Jefferson County,United States,80226
Lancashire Constabulary,United Kingdom,53.7647574,-2.7026249,"Lancaster Rd N, Preston PR1 2SA, UK",ChIJJ9FSLXBye0gR-U4XT7OWC9s,"establishment,point_of_interest,police",,Lancaster Road North,,,England,Lancashire,United Kingdom,PR1 2SA
Lansing Police Department,"Michigan, USA",42.732535,-84.5555347,"Lansing, MI, USA",ChIJN4wxfxzAIogRnp0CiSO2eEM,"locality,political",,,Lansing,,Michigan,Ingham County,United States,
Las Vegas Metropolitan Police Department,"Nevada, USA",36.171563,-115.1391009,"Las Vegas, NV, USA",ChIJ0X31pIK3voARo3mz1ebVzDo,"locality,political",,,Las Vegas,,Nevada,Clark County,United States,
Lauderhill Police Department,"Florida, USA",26.1654054,-80.23396199999999,"6279 W Oakland Park Blvd, Lauderhill, FL 33313, USA",ChIJWxHvbmIG2YgRFYQxcxSorgU,"establishment,point_of_interest,police",6279,West Oakland Park Boulevard,Lauderhill,,Florida,Broward County,United States,33313
Lee's Summit Police Department,"Missouri, USA",38.912038,-94.379024,"207 SW Market St, Lee's Summit, MO 64063, USA",ChIJy6HWdPMfwYcRgkm-4vzgso0,"establishment,point_of_interest,police",207,Southwest Market Street,Lee's Summit,,Missouri,Jackson County,United States,64063
Leicestershire Constabulary,United Kingdom,55.378051,-3.435973,United Kingdom,ChIJqZHHQhE7WgIReiWIMkOg-MQ,"country,political",,,,,,,United Kingdom,
Lexington Division of Police,"Kentucky, USA",38.0405837,-84.5037164,"Lexington, KY, USA",ChIJJeuczClEQogR3U-MkEGD8IQ,"locality,political",,,Lexington,,Kentucky,Fayette County,United States,
Lima Police Department,"Ohio, USA",40.7402058,-84.1037899,"117 E Market St, Lima, OH 45801, USA",ChIJZUxaqQnyPogRA8-vsL17DZs,"establishment,point_of_interest,police",117,East Market Street,Lima,,Ohio,Allen County,United States,45801
Lincoln Police Department,"Nebraska, USA",40.80809500000001,-96.707751,"575 S 10th St, Lincoln, NE 68508, USA",ChIJnQzLyx-_locRS1gS44tRpZ4,"establishment,point_of_interest,police",575,South 10th Street,Lincoln,,Nebraska,Lancaster County,United States,68508
Littleton Police Department,"Colorado, USA",39.6177566,-105.0134687,"2255 W Berry Ave, Littleton, CO 80120, USA",ChIJEbZHODSAbIcRP1EE7DqKwH8,"establishment,point_of_interest,police",2255,West Berry Avenue,Littleton,,Colorado,Arapahoe County,United States,80120
London Borough of Enfield,"London, United Kingdom",51.65229830000001,-0.0806995,"London Borough of Enfield, UK",ChIJ7Y9uo9MYdkgRgGnsoi2uDgQ,"administrative_area_level_3,political",,,,,England,Greater London,United Kingdom,
Longmont Police Department,"Colorado, USA",40.16310490000001,-105.1011372,"225 Kimbark St, Longmont, CO 80501, USA",ChIJhTLmYQD5a4cRa2O37xV6Ll0,"establishment,point_of_interest",225,Kimbark Street,Longmont,,Colorado,Boulder County,United States,80501
Los Angeles County Sheriff's Department,"California, USA",34.3871821,-118.1122679,"Los Angeles County, CA, USA",ChIJMc1kAdMq3YARKjm9z9YofYM,"administrative_area_level_2,political",,,,,California,Los Angeles County,United States,
Los Angeles Police Department,"California, USA",34.0549076,-118.242643,"Los Angeles, CA, USA",ChIJE9on3F3HwoAR9AhGJW_fL-I,"locality,political",,,Los Angeles,,California,Los Angeles County,United States,
Loudoun County Sheriff's Office,"Virginia, USA",39.0821716,-77.5535593,"803 Sycolin Rd # 301, Leesburg, VA 20175, USA",ChIJyZVy4SoWtokRkMJ0xfP6LGA,"establishment,local_government_office,point_of_interest,police",803,Sycolin Road,Leesburg,,Virginia,Loudoun County,United States,20175
Louisiana State Police,USA,30.5190775,-91.5208624,"Louisiana, USA",ChIJZYIRslSkIIYRA0flgTL3Vck,"administrative_area_level_1,political",,,,,Louisiana,,United States,
Louisville Division of Police,"Kentucky, USA",38.2526647,-85.7584557,"Louisville, KY, USA",ChIJEdVbsxoLaYgRMv1xICi009Q,"locality,political",,,Louisville,,Kentucky,Jefferson County,United States,
Louisville Metro Police Department,"Kentucky, USA",38.2545195,-85.7618372,"633 W Jefferson St, Louisville, KY 40202, USA",ChIJq8DMJKRyaYgRObsbhfON-mE,"establishment,local_government_office,point_of_interest,police",633,West Jefferson Street,Louisville,,Kentucky,Jefferson County,United States,40202
Lowell Police Department,"Massachusetts, USA",42.6470411,-71.31351,"50 Arcand Dr, Lowell, MA 01852, USA",ChIJse1ry0Ck44kR5gxPdEEmXj4,"establishment,point_of_interest,police",50,Arcand Drive,Lowell,,Massachusetts,Middlesex County,United States,01852
Lynchburg Police Department,"Virginia, USA",37.4133298,-79.1444442,"Public Safety Building, West Building, 905 Court St, Lynchburg, VA 24504, USA",ChIJe2URvXLZsokRr7YUhJ9Xq1I,"establishment,point_of_interest,police",905,Court Street,Lynchburg,,Virginia,,United States,24504
Mansfield Police Department,"Massachusetts, USA",42.0326877,-71.1953683,"500 East St, Mansfield, MA 02048, USA",ChIJtaxFW0Ji5IkRZhcEiVP3TrI,"establishment,point_of_interest,police",500,East Street,Mansfield,,Massachusetts,Bristol County,United States,02048
Marietta Police Department,"Georgia, USA",33.95502920000001,-84.54516799999999,"240 Lemon St NE, Marietta, GA 30060, USA",ChIJOUcyLz0U9YgRwdNb4GeWxXY,"establishment,point_of_interest,police",240,Lemon Street NE,Marietta,,Georgia,Cobb County,United States,30060
Maryland State Police,USA,39.0457549,-76.64127119999999,"Maryland, USA",ChIJ35Dx6etNtokRsfZVdmU3r_I,"administrative_area_level_1,political",,,,,Maryland,,United States,
Massachusetts Bay Transportation Authority,USA,37.09024,-95.712891,United States,ChIJCzYy5IS16lQRQrfeQ5K5Oxw,"country,political",,,,,,,United States,
Massachusetts Office of Executive Safety,USA,42.4072107,-71.3824374,"Massachusetts, USA",ChIJ_b9z6W1l44kRHA2DVTbQxkU,"administrative_area_level_1,political",,,,,Massachusetts,,United States,
Massachusetts State Police,USA,42.4072107,-71.3824374,"Massachusetts, USA",ChIJ_b9z6W1l44kRHA2DVTbQxkU,"administrative_area_level_1,political",,,,,Massachusetts,,United States,
Merseyside Police Department,United Kingdom,53.46295809999999,-2.9240946,"Merseyside, UK",ChIJc2fVfoPXekgRApLOHfrVYYY,"administrative_area_level_2,political",,,,,England,Merseyside,United Kingdom,
Mesa Police Department,"Arizona, USA",33.4183833,-111.8375752,"130 N Robson, Mesa, AZ 85201, USA",ChIJK-xq4OunK4cRfAvcpeuWw-M,"establishment,point_of_interest,police",130,North Robson,Mesa,,Arizona,Maricopa County,United States,85201
Mesquite Police Department,"Texas, USA",32.7741869,-96.5999976,"777 N Galloway Ave, Mesquite, TX 75149, USA",ChIJ9TXBe5-lToYR0_AG-6HuxuE,"establishment,point_of_interest,police",777,North Galloway Avenue,Mesquite,,Texas,Dallas County,United States,75149
Metro-Dade Police Department,"Florida, USA",25.5516034,-80.6326916,"Miami-Dade County, FL, USA",ChIJORjpTQWL2YgRi2OVgXQeaUk,"administrative_area_level_2,political",,,,,Florida,Miami-Dade County,United States,
Metropolitan Bureau of Investigation,"Florida, USA",27.6648274,-81.5157535,"Florida, USA",ChIJvypWkWV2wYgR0E7HW9MTLvc,"administrative_area_level_1,political",,,,,Florida,,United States,
Metropolitan Police District of Columbia,"Washington, DC, USA",38.8925688,-76.9429394,"100 42nd St NE, Washington, DC 20019, USA",ChIJVd_xXeq4t4kR7hfcBD16v5E,"establishment,point_of_interest,police",100,42nd Street Northeast,Washington,,District of Columbia,,United States,20019
Metropolitan Police Service,"London, United Kingdom",51.5072178,-0.1275862,"London, UK",ChIJdd4hrwug2EcRmSrV3Vo6llI,"locality,political",,,London,,England,Greater London,United Kingdom,
Miami Police Department,"Florida, USA",25.777815,-80.19792679999999,"Miami Police Department, Miami, FL 33101, USA",ChIJL1hbzZm22YgRzdW3ZHBgrOo,,,,Miami,,Florida,Miami-Dade County,United States,33101
Michigan State Police,USA,44.3148443,-85.60236429999999,"Michigan, USA",ChIJEQTKxz2qTE0Rs8liellI3Zc,"administrative_area_level_1,political",,,,,Michigan,,United States,
Michigan State University Police Department,"East Lansing, Michigan, USA",42.7211354,-84.4831269,"1120 Red Cedar Rd, East Lansing, MI 48823, USA",ChIJV9dO1XzCIogRtazRMpklW_k,"establishment,local_government_office,point_of_interest,police",1120,Red Cedar Road,East Lansing,,Michigan,Ingham County,United States,48823
Milpitas Police Department,"California, USA",37.449493,-121.9102219,"1275 N Milpitas Blvd, Milpitas, CA 95035, USA",ChIJcfHgNLbIj4AR3TQ45xSqqU0,"establishment,point_of_interest,police",1275,North Milpitas Boulevard,Milpitas,,California,Santa Clara County,United States,95035
Milwaukee Police Department,"Wisconsin, USA",43.0389025,-87.9064736,"Milwaukee, WI, USA",ChIJ50eLV9cCBYgRhHtBtSIZX0Q,"locality,political",,,Milwaukee,,Wisconsin,Milwaukee County,United States,
Minneapolis Police Department,"Minnesota, USA",44.977753,-93.2650108,"Minneapolis, MN, USA",ChIJvbt3k5Azs1IRB-56L4TJn5M,"locality,political",,,Minneapolis,,Minnesota,Hennepin County,United States,
Miramar Police Department,"Florida, USA",25.9812513,-80.2827449,"3064 N Commerce Pkwy, Miramar, FL 33025, USA",ChIJN0qDKkWv2YgRrZEMv_vgs0Q,"establishment,point_of_interest,police",3064,North Commerce Parkway,Miramar,,Florida,Broward County,United States,33025
Mobile County Sheriff's Office,"Alabama, USA",30.6794382,-88.04084850000001,"510 S Royal St, Mobile, AL 36603, USA",ChIJx9G_DsZPmogRrbH-pIViPqM,"establishment,local_government_office,point_of_interest,police",510,South Royal Street,Mobile,,Alabama,Mobile County,United States,36603
Monroe-Woodbury School District,"New York, USA",41.316041,-74.1944529,"Monroe-Woodbury Central School District, NY, USA",ChIJJ_KIIoLXwokRlcmtdH1Mp3w,political,,,,,New York,Orange County,United States,
Monrovia Police Department,"California, USA",34.1479137,-117.9992901,"140 E Lime Ave, Monrovia, CA 91016, USA",ChIJR6j5EGrZwoAR-EYGVXVOMNU,"establishment,point_of_interest,police",140,East Lime Avenue,Monrovia,,California,Los Angeles County,United States,91016
Monterey Park Police Department,"California, USA",34.0591504,-118.126259,"320 W Newmark Ave, Monterey Park, CA 91754, USA",ChIJXaq1oVnFwoARAZx8uymhraA,"establishment,point_of_interest,police",320,West Newmark Avenue,Monterey Park,,California,Los Angeles County,United States,91754
Montgomery County Police Department,"Maryland, USA",39.1547426,-77.2405153,"Montgomery County, MD, USA",ChIJh6O4gzUytokRc2ipdwYZC3g,"administrative_area_level_2,political",,,,,Maryland,Montgomery County,United States,
Montreal Urban Community Police Service,"Quebec, Canada",45.5018918,-73.567476,"Montreal, QC, Canada",ChIJl7TSQk3ex0wRM0QRpZ0sb30,"administrative_area_level_2,political",,,,,Quebec,Montreal,Canada,
Mount Vernon Police Department,"Washington, USA",48.4201105,-122.3374542,"Mount Vernon, WA, USA",ChIJGcOydplMhVQRReHZYGxcPoM,"locality,political",,,Mount Vernon,,Washington,Skagit County,United States,
Multnomah County Sheriff's Department,"Oregon, USA",45.5125058,-122.6602469,"501 SE Hawthorne Blvd #350, Portland, OR 97214, USA",ChIJhb7zOeaglVQR7NKeX0lEtWc,"establishment,local_government_office,point_of_interest,police",501,Southeast Hawthorne Boulevard,Portland,,Oregon,Multnomah County,United States,97214
Mundelein Police Department,"Illinois, USA",42.2669562,-88.0036775,"221 N Lake St, Mundelein, IL 60060, USA",ChIJEdy85XqXD4gRzZ6vyJ4u918,"establishment,point_of_interest,police",221,North Lake Street,Mundelein,,Illinois,Lake County,United States,60060
Myrtle Beach Police Department,"South Carolina, USA",33.697554,-78.88190349999999,"1101 N Oak St, Myrtle Beach, SC 29577, USA",ChIJwXlrSv5oAIkRFRe4d2ZsylM,"establishment,point_of_interest,police",1101,North Oak Street,Myrtle Beach,,South Carolina,Horry County,United States,29577
Nampa Police Department,"Idaho, USA",43.580836,-116.5637836,"820 2nd St S, Nampa, ID 83651, USA",ChIJo0Ji4mtMrlQRrg2t-3wbVrU,"establishment,point_of_interest,police",820,2nd Street South,Nampa,,Idaho,Canyon County,United States,83651
Naperville Police Department,"Illinois, USA",41.7649293,-88.176951,"1350 Aurora Ave, Naperville, IL 60540, USA",ChIJz7X2Xg34DogRQOiK2ooV4i0,"establishment,point_of_interest,police",1350,Aurora Avenue,Naperville,,Illinois,DuPage County,United States,60540
Nassau County District Attorney's Office,"New York, USA",40.7387306,-73.6347597,"262 Old Country Rd, Mineola, NY 11501, USA",ChIJc1tUoF59wokRdyzFMJq04t4,"establishment,lawyer,point_of_interest",262,Old Country Road,Mineola,,New York,Nassau County,United States,11501
Nassau County Police Department,"New York, USA",40.7838113,-73.7038407,"100 Community Dr, Manhasset, NY 11030, USA",ChIJx54jLbKJwokRYuwn00Lo8No,"establishment,point_of_interest,police",100,Community Drive,Manhasset,,New York,Nassau County,United States,11030
National City Police Department,"California, USA",32.6716453,-117.1055366,"1200 National City Blvd, National City, CA 91950, USA",ChIJO7nKHkdS2YAROAGgJyGKeDY,"establishment,local_government_office,point_of_interest",1200,National City Boulevard,National City,,California,San Diego County,United States,91950
National Oceanic & Atmospheric Administration,"California, USA",36.85286,-76.29827,,,,,,,,,,,
Neenah Police Department,"Wisconsin, USA",44.1630727,-88.47063179999999,"2111 Marathon Ave, Neenah, WI 54956, USA",ChIJ72MurVK_A4gR62OuPWSQLk4,"establishment,point_of_interest,police",2111,Marathon Avenue,Neenah,,Wisconsin,Winnebago County,United States,54956
New Bedford Police Department,"Massachusetts, USA",41.6380939,-70.9509339,"871 Rockdale Ave, New Bedford, MA 02740, USA",ChIJHZZVp4Pj5IkRXH_uVLmgfP8,"establishment,point_of_interest,police",871,Rockdale Avenue,New Bedford,,Massachusetts,Bristol County,United States,02740
New Castle County Police Department,"Delaware, USA",39.5392979,-75.667356,"New Castle County, DE, USA",ChIJh7_kg3Ybx4kR6L5mDoWESqw,"administrative_area_level_2,political",,,,,Delaware,New Castle County,United States,
New Orleans Police Department,"Louisiana, USA",29.9608627,-90.0928608,"715 S Broad St, New Orleans, LA 70119, USA",ChIJae0jGO2lIIYR1szwR91D9Fg,"establishment,local_government_office,point_of_interest,police",715,South Broad Street,New Orleans,,Louisiana,Orleans Parish,United States,70119
New Rochelle Police Department,"New York, USA",40.9189368,-73.78638579999999,"City Hall, 475 North Ave #2, New Rochelle, NY 10801, USA",ChIJK9CELoSNwokR0bY7cismVjY,"establishment,point_of_interest,police",475,North Avenue,New Rochelle,,New York,Westchester County,United States,10801
New South Wales Police,Australia,-31.2532183,146.921099,"New South Wales, Australia",ChIJDUte93TLDWsRLZ_EIhGvgBc,"administrative_area_level_1,political",,,,,New South Wales,,Australia,
New Westminster Police Service,"British Columbia, Canada",49.2034461,-122.907821,"555 Columbia St, New Westminster, BC V3L 1B2, Canada",ChIJnxWtAXPYhVQRnJDqO-l2pSg,"establishment,point_of_interest,police",555,Columbia Street,New Westminster,,British Columbia,Metro Vancouver,Canada,V3L 1B2
"New Zealand Department of Corrections, National Intelligence Unit","Wellington, New Zealand",-41.2923814,174.7787463,"Wellington, New Zealand",ChIJy3TpSfyxOG0RcLQTomPvAAo,"locality,political",,,Wellington,,Wellington,,New Zealand,
New Zealand Police,New Zealand,-40.900557,174.885971,New Zealand,ChIJh5Z3Fw4gLG0RM0dqdeIY1rE,"country,political",,,,,,,New Zealand,
Newport Beach Police Department,"California, USA",33.6233121,-117.8804678,"870 Santa Barbara Dr, Newport Beach, CA 92660, USA",ChIJT2p5e9Xf3IAR-PjpcQnPS8Q,"establishment,point_of_interest,police",870,Santa Barbara Drive,Newport Beach,,California,Orange County,United States,92660
Newport News Police Department,"Virginia, USA",37.0298821,-76.44974189999999,"9710 Jefferson Ave, Newport News, VA 23605, USA",ChIJ08aWjKyCuokR6LgqE856Rh4,"establishment,point_of_interest,police",9710,Jefferson Avenue,Newport News,,Virginia,,United States,23605
Niagara County Sheriff's Office,"New York, USA",43.3119496,-78.74762079999999,"Niagara County, NY, USA",ChIJqZePrpqE1IkRdVv2SU7kou0,"administrative_area_level_2,political",,,,,New York,Niagara County,United States,
NOAA Office for Law Enforcement,"Washington, DC, USA",38.9071923,-77.0368707,"Washington, DC, USA",ChIJW-T2Wt7Gt4kRKl2I1CJFUsI,"locality,political",,,Washington,,District of Columbia,District of Columbia,United States,
Norfolk Police Department,"Virginia, USA",36.8507689,-76.28587259999999,"Norfolk, VA, USA",ChIJRcoiUzqXuokRCh56zn8Qmas,"locality,political",,,Norfolk,,Virginia,,United States,
Norman Police Department,"Oklahoma, USA",35.2228315,-97.446203,"201 W Gray St B, Norman, OK 73069, USA",ChIJGzR_idxpsocRlLG6GE5ZUzY,"establishment,point_of_interest,police",201,West Gray Street,Norman,,Oklahoma,Cleveland County,United States,73069
North Miami Beach Police Department,"Florida, USA",25.9317506,-80.1618438,"16901 NE 19th Ave, North Miami Beach, FL 33162, USA",ChIJpVrfdret2YgR2j9HfwObKdk,"establishment,point_of_interest,police",16901,Northeast 19th Avenue,North Miami Beach,,Florida,Miami-Dade County,United States,33162
North Slope Borough Department of Public Safety,"Alaska, USA",69.05787579999999,-152.8628274,"North Slope Borough, AK, USA",ChIJB9NjWeWd2VARx-Cy8uG2nZc,"administrative_area_level_2,political",,,,,Alaska,North Slope Borough,United States,
Northumbria Police,United Kingdom,55.378051,-3.435973,United Kingdom,ChIJqZHHQhE7WgIReiWIMkOg-MQ,"country,political",,,,,,,United Kingdom,
North Wales Police,United Kingdom,53.2935149,-3.7261318,"7 Rhiw Rd, Colwyn Bay LL29 7TH, UK",ChIJM5Wa7CsgZUgRTxl9PZ6UdRA,"establishment,point_of_interest,police",7,Rhiw Road,,,Wales,Conwy Principal Area,United Kingdom,LL29 7TH
North Yorkshire Police,United Kingdom,53.7059019,-1.152967,"Weeland Rd, Eggborough, Goole DN14 0RX, UK",ChIJDcMe5sAVeUgRiSN84aeNVfM,"establishment,point_of_interest,police",,Weeland Road,Eggborough,,England,North Yorkshire,United Kingdom,DN14 0RX
Northern Illinois University Department of Public Safety,"DeKalb, Illinois, USA",41.934194,-88.77387829999999,"Barsema Alumni and Visitors Center, 231 N Annie Glidden Rd, DeKalb, IL 60115, USA",ChIJp3xwUMEqD4gRAHwPGX3v3zs,"establishment,point_of_interest,university",231,North Annie Glidden Road,DeKalb,,Illinois,DeKalb County,United States,60115
Oceanside Police Department,"California, USA",33.2259262,-117.3290062,"3855 Mission Ave, Oceanside, CA 92058, USA",ChIJhYkeoU9w3IARguONpwYxZBc,"establishment,point_of_interest,police",3855,Mission Avenue,Oceanside,,California,San Diego County,United States,92058
Olympia Police Department,"Washington, USA",47.0452309,-122.8949427,"601 4th Ave E, Olympia, WA 98501, USA",ChIJ8xyxsOF0kVQR7P-iAGUsTGE,"establishment,point_of_interest,police",601,4th Avenue East,Olympia,,Washington,Thurston County,United States,98501
Ontario Police Department,"California, USA",34.0291919,-117.5967237,"2500 S Archibald Ave, Ontario, CA 91761, USA",ChIJp69B2ik1w4AR8r6Z84jyO1Q,"establishment,point_of_interest,police",2500,South Archibald Avenue,Ontario,,California,San Bernardino County,United States,91761
Ontario Provincial Police,Canada,56.130366,-106.346771,Canada,ChIJ2WrMN9MDDUsRpY9Doiq3aJk,"country,political",,,,,,,Canada,
Orange County Sheriff's Department/Dana Point Police Services,"California, USA",33.4797233,-117.6971534,"33282 Golden Lantern, Dana Point, CA 92629, USA",ChIJVVVFkEnw3IARemmN5sDqW_4,"establishment,point_of_interest,police",33282,Golden Lantern,Dana Point,,California,Orange County,United States,92629
Orange County Sheriff's Office,"Florida, USA",28.5383155,-81.4145442,"S John Young Pkwy, Orlando, FL 32805, USA",ChIJRzNbbKZ754gREVfC9cj39q4,"establishment,point_of_interest,police",,South John Young Parkway,Orlando,,Florida,Orange County,United States,32805
Orlando Police Department,"Florida, USA",28.5383832,-81.3789269,"Orlando, FL, USA",ChIJd7zN_thz54gRnr-lPAaywwo,"locality,political",,,Orlando,,Florida,Orange County,United States,
Oslo Politidistrikt,Norway,59.9138688,10.7522454,"Oslo, Norway",ChIJOfBn8mFuQUYRmh4j019gkn4,"locality,political",,,Oslo,,Oslo,,Norway,
Ottawa Police Service,"Ontario, Canada",45.4200572,-75.7003397,"Ottawa, ON, Canada",ChIJrxNRX7IFzkwR7RXdMeFRaoo,"locality,political",,,Ottawa,,Ontario,Ottawa,Canada,
Ottawa-Carleton Regional Police Services,"Ontario, Canada",45.3871529,-75.6959036,"1125 Colonel By Dr, Ottawa, ON K1S 5B6, Canada",ChIJw-x_09gFzkwR3Ny4IXiNXb8,"establishment,point_of_interest,university",1125,Colonel By Drive,Ottawa,,Ontario,Ottawa,Canada,K1S 5B6
Overland Park Police Department,"Kansas, USA",38.9034118,-94.6730386,"12400 Foster St, Overland Park, KS 66213, USA",ChIJGWVK8XHqwIcRIcVmaShKwPo,"establishment,point_of_interest,police",12400,Foster Street,Overland Park,,Kansas,Johnson County,United States,66213
Palm Beach County Sheriff's Office,"Florida, USA",26.6514503,-80.2767327,"Palm Beach County, FL, USA",ChIJ89agzq663ogRA5AghqgXmok,"administrative_area_level_2,political",,,,,Florida,Palm Beach County,United States,
Panthera,Zambia,-13.133897,27.849332,Zambia,ChIJcQv8_KX0QBkRRT5Yfqz5n_E,"country,political",,,,,,,Zambia,
Pasadena Police Department,"California, USA",34.1490448,-118.1445931,"207 Garfield Ave, Pasadena, CA 91101, USA",ChIJb1GOLGzDwoARK2-cLxE4imU,"establishment,point_of_interest,police",207,Garfield Avenue,Pasadena,,California,Los Angeles County,United States,91101
Peel Regional Police,"Ontario, Canada",51.253775,-85.3232139,"Ontario, Canada",ChIJrxNRX7IFzkwRCR5iKVZC-HA,"administrative_area_level_1,political",,,,,Ontario,,Canada,
Peoria Police Department,"Illinois, USA",40.6874781,-89.5960372,"600 SW Adams St, Peoria, IL 61602, USA",ChIJ05omRg5ZCogRf9A4bK_ewXA,"establishment,point_of_interest,police",600,Southwest Adams Street,Peoria,,Illinois,Peoria County,United States,61602
Perry Township Police Department,"Ohio, USA",40.7898716,-81.46502559999999,"622 Genoa Ave SW, Massillon, OH 44646, USA",ChIJT8BjX9bZNogRQrkVOmXe5_k,"establishment,point_of_interest,police",622,Genoa Avenue Southwest,Massillon,,Ohio,Stark County,United States,44646
Phoenix Police Department,"Arizona, USA",33.4483771,-112.0740373,"Phoenix, AZ, USA",ChIJy3mhUO0SK4cRrBtKNfjHaYw,"locality,political",,,Phoenix,,Arizona,Maricopa County,United States,
Pinellas Park Police Department,"Florida, USA",27.8416542,-82.71461430000001,"7700 59th St, Pinellas Park, FL 33781, USA",ChIJQ87qor3kwogRYif2K1M9L_Q,"establishment,point_of_interest,police",7700,59th Street,Pinellas Park,,Florida,Pinellas County,United States,33781
Plano Police Department,"Texas, USA",33.0183461,-96.7026259,"909 14th St, Plano, TX 75074, USA",ChIJAQAAAHAZTIYRecs-Kj_VmYI,"establishment,local_government_office,point_of_interest,police",909,14th Street,Plano,,Texas,Collin County,United States,75074
Police Service of Northern Ireland,United Kingdom,54.7877149,-6.4923145,"Northern Ireland, UK",ChIJdZmmmcoQXkgR2OO3bu8o5fc,"administrative_area_level_1,political",,,,,Northern Ireland,,United Kingdom,
Policía Municipal de Morelia,"Michoacan, Mexico",19.7057479,-101.1968776,"León Guzmán 307, Centro histórico de Morelia, 58000 Morelia, Mich., Mexico",ChIJC2k76hEPLYQRx-1xO6Bx_nM,"establishment,point_of_interest",307,León Guzmán,Morelia,Centro histórico de Morelia,Michoacán,,Mexico,58000
"Politie, Midden en West Brabant",The Netherlands,51.4826537,5.2321687,"North Brabant, Netherlands",ChIJtanWwXa_xkcRwFwejVreAAM,"administrative_area_level_1,political",,,,,North Brabant,,Netherlands,
Pomona Police Department,"California, USA",34.0547536,-117.7539664,"490 W Mission Blvd, Pomona, CA 91766, USA",ChIJc-ZcW-8tw4ARhdZU4KWii8Q,"establishment,point_of_interest,police",490,West Mission Boulevard,Pomona,,California,Los Angeles County,United States,91766
Port St. Lucie Police Department,"Florida, USA",27.2741643,-80.3429381,"121 SW Port St Lucie Blvd Building C, Port St. Lucie, FL 34984, USA",ChIJL2JxsRLp3ogR7rTWH5lpw_M,"establishment,point_of_interest,police",121,Southwest Port Saint Lucie Boulevard,Port St. Lucie,,Florida,St. Lucie County,United States,34984
Portland Police Bureau,"Oregon, USA",45.515232,-122.6783853,"Portland, OR, USA",ChIJJ3SpfQsLlVQRkYXR9ua5Nhw,"locality,political",,,Portland,,Oregon,Multnomah County,United States,
Prescott Police Department,"Arizona, USA",34.53888510000001,-112.4677195,"222 S Marina St, Prescott, AZ 86303, USA",ChIJ51YKgtwoLYcRU7rDeClRCC4,"establishment,point_of_interest,police",222,South Marina Street,Prescott,,Arizona,Yavapai County,United States,86303
Prince George's County Police Department,"Maryland, USA",38.82706779999999,-76.8517126,"8801 Police Plaza, Upper Marlboro, MD 20772, USA",ChIJ0QuwGjq_t4kRKlcbZLY5cwg,"establishment,local_government_office,point_of_interest",8801,Police Plaza,Upper Marlboro,,Maryland,Prince George's County,United States,20772
Providence Police Department,"Rhode Island, USA",41.8199421,-71.4207069,"325 Washington St, Providence, RI 02903, USA",ChIJ9bAirX9F5IkRc0mvV7dNHQA,"establishment,local_government_office,point_of_interest,police",325,Washington Street,Providence,,Rhode Island,Providence County,United States,02903
Provo Police Department,"Utah, USA",40.2333887,-111.6669803,"445 W Center St, Provo, UT 84601, USA",ChIJ8TxZEFWXTYcRwRaGm7UNFsA,"establishment,local_government_office,point_of_interest,police",445,West Center Street,Provo,,Utah,Utah County,United States,84601
Raleigh Police Department,"North Carolina, USA",35.7795897,-78.6381787,"Raleigh, NC, USA",ChIJ9-BRny9arIkRrfARilK2kGc,"locality,political",,,Raleigh,,North Carolina,Wake County,United States,
Rapid City Police Department,"South Dakota, USA",44.0782503,-103.2220511,"300 Kansas City St #302, Rapid City, SD 57701, USA",ChIJ81DlXipDfYcRPi2HJceVPyw,"establishment,point_of_interest,police",300,Kansas City Street,Rapid City,,South Dakota,Pennington County,United States,57701
Redding Police Department,"California, USA",40.5731463,-122.3817215,"777 Cypress Ave, Redding, CA 96001, USA",ChIJd1yXMOzs0lQR_V-meeYn2i0,"establishment,point_of_interest,police",777,Cypress Avenue,Redding,,California,Shasta County,United States,96001
Redlands Police Department,"California, USA",34.0498323,-117.1980279,"1150 Brookside Ave # J12, Redlands, CA 92373, USA",ChIJNbrS7T2q3IARoEcE1bR9uWI,"establishment,point_of_interest,police",1150,Brookside Avenue,Redlands,,California,San Bernardino County,United States,92373
Redondo Beach Police Department,"California, USA",33.8491816,-118.3884078,"Redondo Beach, CA, USA",ChIJE7lJQ5G0woARZfEcVNv4z_8,"locality,political",,,Redondo Beach,,California,Los Angeles County,United States,
Regina Police Service,"Saskatchewan, Canada",50.4452112,-104.6188944,"Regina, SK, Canada",ChIJ6z2l-0AeHFMRsVR7t5YySjU,"locality,political",,,Regina,,Saskatchewan,Sherwood No. 159,Canada,
Reno Police Department,"Nevada, USA",39.527832,-119.806264,"455 E 2nd St, Reno, NV 89502, USA",ChIJyeabWLNAmYARonClwmC4sX4,"establishment,point_of_interest,police",455,East 2nd Street,Reno,,Nevada,Washoe County,United States,89502
Richmond Police Department,"Virginia, USA",37.5407246,-77.4360481,"Richmond, VA, USA",ChIJ7cmZVwkRsYkRxTxC4m0-2L8,"locality,political",,,Richmond,,Virginia,,United States,
Riverside Police Department,"California, USA",33.9806005,-117.3754942,"Riverside, CA, USA",ChIJu330f9-m3IAR6ApeEwXXofc,"locality,political",,,Riverside,,California,Riverside County,United States,
Rochester Police Department,"New York, USA",40.7127753,-74.0059728,"New York, NY, USA",ChIJOwg_06VPwokRYv534QaPC8g,"locality,political",,,New York,,New York,,United States,
Rockaway Police Department,"New Jersey, USA",40.9125729,-74.5299686,"65 Mt Hope Rd, Rockaway, NJ 07866, USA",ChIJ60MZcbMLw4kRIxPsDZS_Nss,"establishment,point_of_interest,police",65,Mount Hope Road,Rockaway,,New Jersey,Morris County,United States,07866
Rogers County Sheriff's Office,"Oklahoma, USA",36.3113137,-95.6150831,"114 S Missouri Ave, Claremore, OK 74017, USA",ChIJU4MYU5tQtocReasHFQkcKZk,"establishment,local_government_office,point_of_interest,police",114,South Missouri Avenue,Claremore,,Oklahoma,Rogers County,United States,74017
Rolling Meadows Police Department,"Illinois, USA",42.080655,-88.02503159999999,"3600 Kirchoff Rd, Rolling Meadows, IL 60008, USA",ChIJt9dtZ0elD4gRnSNVM8RjjRY,"establishment,point_of_interest,police",3600,Kirchoff Road,Rolling Meadows,,Illinois,Cook County,United States,60008
Roseville Police Department,"California, USA",38.7589323,-121.2956898,"1051 Junction Blvd, Roseville, CA 95678, USA",ChIJ1yFoj7Ihm4ARqOWLDv9ZJiM,"establishment,point_of_interest,police",1051,Junction Boulevard,Roseville,,California,Placer County,United States,95678
Royal Canadian Mounted Police,"British Columbia, Canada",53.7266683,-127.6476206,"British Columbia, Canada",ChIJr2prqsdmelMR-fHnN-lBG4g,"administrative_area_level_1,political",,,,,British Columbia,,Canada,
Sacramento Police Department,"California, USA",38.5815719,-121.4943996,"Sacramento, CA, USA",ChIJ-ZeDsnLGmoAR238ZdKpqH5I,"locality,political",,,Sacramento,,California,Sacramento County,United States,
Salt Lake City Police Department,"Utah, USA",40.7601209,-111.8849446,"475 S 300 E, Salt Lake City, UT 84111, USA",ChIJJ1VVVRn1UocRLMJi-JP5QAA,"establishment,point_of_interest,police",475,South 300 East,Salt Lake City,,Utah,Salt Lake County,United States,84111
San Angelo Police Department,"Texas, USA",31.463747,-100.430356,"401 E Beauregard Ave, San Angelo, TX 76903, USA",ChIJldRAcVDvV4YRKCdg8gjcLTo,"establishment,point_of_interest,police",401,East Beauregard Avenue,San Angelo,,Texas,Tom Green County,United States,76903
San Antonio Police Department,"Texas, USA",29.4227234,-98.4992195,"315 S Santa Rosa Ave #2000, San Antonio, TX 78207, USA",ChIJLYBD5bJYXIYRF_yw9cGsxzw,"establishment,local_government_office,point_of_interest",315,South Santa Rosa Avenue,San Antonio,,Texas,Bexar County,United States,78207
San Bernardino County Sheriff's Department,"California, USA",34.1039699,-117.2727151,"655 E 3rd St, San Bernardino, CA 92415, USA",ChIJy6cxBFRTw4ARkyy1Y0S5lRs,"establishment,local_government_office,point_of_interest,police",655,East 3rd Street,San Bernardino,,California,San Bernardino County,United States,92415
San Bernardino Police Department,"California, USA",34.1122968,-117.2921259,"710 N D St, San Bernardino, CA 92401, USA",ChIJrYcSbz9Tw4ARhNwg3MZOWLs,"establishment,point_of_interest,police",710,North D Street,San Bernardino,,California,San Bernardino County,United States,92401
San Carlos Police Department,"California, USA",37.5071591,-122.2605222,"San Carlos, CA, USA",ChIJd2j8APShj4ARiGkYJJ0PePo,"locality,political",,,San Carlos,,California,San Mateo County,United States,
San Diego County Sheriff's Department,"California, USA",36.778261,-119.4179324,"California, USA",ChIJPV4oX_65j4ARVW8IJ6IJUYs,"administrative_area_level_1,political",,,,,California,,United States,
San Diego Police Department,"California, USA",32.715738,-117.1610838,"San Diego, CA, USA",ChIJSx6SrQ9T2YARed8V_f0hOg0,"locality,political",,,San Diego,,California,San Diego County,United States,
San Francisco Police Department,"California, USA",37.7749295,-122.4194155,"San Francisco, CA, USA",ChIJIQBpAG2ahYAR_6128GcTUEo,"locality,political",,,San Francisco,,California,San Francisco County,United States,
San Leandro Police Department,"California, USA",37.7281245,-122.1589569,"901 E 14th St, San Leandro, CA 94577, USA",ChIJzaXzCpqPj4AR7pxl0aL3taU,"establishment,point_of_interest,police",901,East 14th Street,San Leandro,,California,Alameda County,United States,94577
San Marcos Police Department,"Texas, USA",29.8544946,-97.9570865,"2300 I 35 Frontage Rd, San Marcos, TX 78666, USA",ChIJ602Ap8SpXIYRHy9DIm_bVz8,"establishment,point_of_interest,police",2300,Interstate 35 Frontage Road,San Marcos,,Texas,Hays County,United States,78666
Santa Ana Police Department,"California, USA",33.7509735,-117.8804248,"60 Civic Center Plaza, Santa Ana, CA 92701, USA",ChIJJQkNi1TY3IARKYazQhi0otQ,"establishment,point_of_interest,police",60,Civic Center Plaza,Santa Ana,,California,Orange County,United States,92701
Santa Barbara Police Department,"California, USA",34.4208305,-119.6981901,"Santa Barbara, CA, USA",ChIJ1YMtb8cU6YARSHa612Q60cg,"locality,political",,,Santa Barbara,,California,Santa Barbara County,United States,
Sarasota Police Department,"Florida, USA",27.3349014,-82.5289423,"2099 Adams Ln, Sarasota, FL 34237, USA",ChIJlz1og2VAw4gRpUzu-nSkCBY,"establishment,local_government_office,point_of_interest",2099,Adams Lane,Sarasota,,Florida,Sarasota County,United States,34237
Savannah Police Department,"Georgia, USA",32.0808989,-81.091203,"Savannah, GA, USA",ChIJWQbyePx1-4gRvCBgA1FnDE4,"locality,political",,,Savannah,,Georgia,Chatham County,United States,
Scottsdale Police Department,"Arizona, USA",33.4943729,-111.89976,"8401 E Indian School Rd, Scottsdale, AZ 85251, USA",ChIJ5STdNjQKK4cRP38v-T3J8Kg,"establishment,point_of_interest,police",8401,East Indian School Road,Scottsdale,,Arizona,Maricopa County,United States,85251
Seattle Police Department,"Washington, USA",47.6061389,-122.3328481,"Seattle, WA, USA",ChIJVTPokywQkFQRmtVEaUZlJRA,"locality,political",,,Seattle,,Washington,King County,United States,
Seminole County Sheriff's Department,"Florida, USA",28.7480015,-81.2946439,"100 Eslinger Way, Sanford, FL 32773, USA",ChIJf-M7TyFt54gR7QKBuI-uWC0,"establishment,local_government_office,point_of_interest,police",100,Eslinger Way,Sanford,,Florida,Seminole County,United States,32773
Sheboygan Police Department,"Wisconsin, USA",43.7591134,-87.7361322,"1315 N 23rd St, Sheboygan, WI 53081, USA",ChIJ9SHaBninBIgRe-joJQujbNw,"establishment,point_of_interest,police",1315,North 23rd Street,Sheboygan,,Wisconsin,Sheboygan County,United States,53081
South African Police Service,South Africa,-30.559482,22.937506,South Africa,ChIJURLu2YmmNBwRoOikHwxjXeg,"country,political",,,,,,,South Africa,
South Euclid Police Department,"Ohio, USA",41.5230874,-81.5185685,"1349 S Green Rd, South Euclid, OH 44121, USA",ChIJxxvw2P79MIgRQQskNTxN1TU,"establishment,point_of_interest,police",1349,South Green Road,South Euclid,,Ohio,Cuyahoga County,United States,44121
South Wales Police,United Kingdom,55.378051,-3.435973,United Kingdom,ChIJqZHHQhE7WgIReiWIMkOg-MQ,"country,political",,,,,,,United Kingdom,
South Yorkshire Police,United Kingdom,53.46969679999999,-1.3259683,"South Yorkshire, UK",ChIJL-13sqjieEgRmY8MZJxnEDo,"administrative_area_level_2,political",,,,,England,South Yorkshire,United Kingdom,
Southern Nevada Counter-Terrorism Center,"Nevada, USA",36.8479162,-115.2837585,"Southern Nevada, NV, USA",ChIJzzCUnUGmuYARLlluAQ-oFD8,"colloquial_area,political",,,,,Nevada,,United States,
Spartanburg Public Safety Department,"South Carolina, USA",34.9515959,-81.9327167,"Spartanburg, SC, USA",ChIJC0aXphmeV4gRyX7ayjgoi1s,"locality,political",,,Spartanburg,,South Carolina,Spartanburg County,United States,
Spokane County Sheriff's Office,"Washington, USA",47.6655753,-117.4291744,"1100 W Mallon Ave, Spokane, WA 99260, USA",ChIJF4dIAlkYnlQRItxFyN3gzi8,"establishment,local_government_office,point_of_interest,police",1100,West Mallon Avenue,Spokane,,Washington,Spokane County,United States,99260
Spokane Police Department,"Washington, USA",47.6579711,-117.4235319,"Spokane, WA, USA",ChIJ5ee7MFwYnlQRsdmEC9bJ_N0,"locality,political",,,Spokane,,Washington,Spokane County,United States,
Springfield Police Department,"Oregon, USA",44.0477284,-123.0211477,"230 4th St, Springfield, OR 97477, USA",ChIJU-t5aTXgwFQRMFY2qYmn83Y,"establishment,point_of_interest",230,4th Street,Springfield,,Oregon,Lane County,United States,97477
Springfield Police Department,"Illinois, USA",39.799004,-89.644607,"800 E Monroe St, Springfield, IL 62701, USA",ChIJn4RFwME5dYgRWyAu6No5dn8,"establishment,point_of_interest,police",800,East Monroe Street,Springfield,,Illinois,Sangamon County,United States,62701
St. Charles Parish Sheriff's Department,"Louisiana, USA",29.96315259999999,-90.4066552,"15025 River Rd, Hahnville, LA 70057, USA",ChIJPSDoyoXFIIYRexBcVf4bZuI,"establishment,local_government_office,point_of_interest,police",15025,River Road,Hahnville,,Louisiana,St. Charles Parish,United States,70057
St. Louis Metropolitan Police Department,"Missouri, USA",38.6319723,-90.2077503,"1915 Olive St, St. Louis, MO 63103, USA",ChIJl_eNFRGz2IcRFgPtCdoRix4,"establishment,point_of_interest,police",1915,Olive Street,St. Louis,,Missouri,,United States,63103
St. Louis Park Police Department,"Minnesota, USA",44.94705,-93.3432207,"3015 Raleigh Ave, St Louis Park, MN 55416, USA",ChIJ687q16sg9ocRd5Fre8HXPkE,"establishment,local_government_office,point_of_interest,police",3015,Raleigh Avenue,St. Louis Park,,Minnesota,Hennepin County,United States,55416
St. Paul Police,"Minnesota, USA",44.9558536,-93.0870077,"367 Grove St, St Paul, MN 55101, USA",ChIJ_Z93zVnV94cRt2YHh8pc7os,"establishment,point_of_interest,police",367,Grove Street,Saint Paul,,Minnesota,Ramsey County,United States,55101
St. Petersburg Police Department,"Florida, USA",27.7721398,-82.6519127,"1301 1st Ave N, St. Petersburg, FL 33705, USA",ChIJr83M6yviwogRe42qnEw1MPM,"establishment,point_of_interest,police",1301,1st Avenue North,St. Petersburg,,Florida,Pinellas County,United States,33705
Staffordshire Police,United Kingdom,52.5337666,-2.1849215,"Civic Centre Gravel Hill, Wombourne, Wolverhampton WV5 9HA, UK",ChIJxY8sesmacEgRgF4mXgtVMp8,"establishment,point_of_interest,police",,,Wombourne,,England,Staffordshire,United Kingdom,WV5 9HA
Stamford Police Department,"Connecticut, USA",41.0605416,-73.5372093,"725 Bedford St, Stamford, CT 06901, USA",ChIJWz__IuqhwokRa3WY-Qj4NK8,"establishment,point_of_interest,police",725,Bedford Street,Stamford,,Connecticut,Fairfield County,United States,06901
State College Police Department,"Pennsylvania, USA",40.7927972,-77.8587939,"State College Municipal Building, 243 S Allen St #337, State College, PA 16801, USA",ChIJwUbSo5iozokRMmbOjUZ-7ag,"establishment,point_of_interest,police",243,South Allen Street,State College,,Pennsylvania,Centre County,United States,16801
Stockton Police Department,"California, USA",37.9511657,-121.2902904,"22 E Market St, Stockton, CA 95202, USA",ChIJ1WihW5kSkIARq71qC07WvVk,"establishment,point_of_interest,police",22,East Market Street,Stockton,,California,San Joaquin County,United States,95202
Stuart Police Department,"Florida, USA",27.1931184,-80.2395083,"830 SE M.L.K. Jr Blvd, Stuart, FL 34994, USA",ChIJ9_gPIHHd3ogRDiF2bSz-eN8,"establishment,point_of_interest,police",830,Southeast Martin Luther King Junior Boulevard,Stuart,,Florida,Martin County,United States,34994
Sugar Land Police Department,"Texas, USA",29.6038496,-95.636825,"1200 Hwy 6, Sugar Land, TX 77478, USA",ChIJA6AKvsjmQIYRDahj3npeXjI,"establishment,point_of_interest,police",1200,Highway 6,Sugar Land,,Texas,Fort Bend County,United States,77478
Suisun City Police Department,"California, USA",38.2379972,-122.0368109,"701 Civic Center Blvd, Suisun City, CA 94585, USA",ChIJt3nP2KwVhYARt_iwGllxybw,"establishment,point_of_interest,police",701,Civic Center Boulevard,Suisun City,,California,Solano County,United States,94585
SUNY at Buffalo Police Department,"New York, USA",42.88644679999999,-78.8783689,"Buffalo, NY, USA",ChIJoeXfUmES04kRcYEfGKUEI5g,"locality,political",,,Buffalo,,New York,Erie County,United States,
Surrey Police,United Kingdom,51.2825396,-0.0763087,"4 Timber Hill Rd, Caterham CR3 6LD, UK",ChIJMXXJ2b3-dUgRJ64bXCJI2E8,"establishment,point_of_interest,police",4,Timber Hill Road,,,England,Surrey,United Kingdom,CR3 6LD
Sussex Police,United Kingdom,55.378051,-3.435973,United Kingdom,ChIJqZHHQhE7WgIReiWIMkOg-MQ,"country,political",,,,,,,United Kingdom,
Tampa Police Department,"Florida, USA",27.9483169,-82.45796729999999,"411 N Franklin St, Tampa, FL 33602, USA",ChIJh2OBazTEwogR829jAVtU258,"establishment,local_government_office,point_of_interest",411,North Franklin Street,Tampa,,Florida,Hillsborough County,United States,33602
Tempe Police Department,"Arizona, USA",33.4255104,-111.9400054,"Tempe, AZ, USA",ChIJ44CqppgIK4cRH7QsOa1K3aI,"locality,political",,,Tempe,,Arizona,Maricopa County,United States,
Temple Police Department,"Texas, USA",31.0947984,-97.3396686,"209 E Avenue A, Temple, TX 76501, USA",ChIJd6yIv4hsRYYRheArTuJmu_A,"establishment,point_of_interest,police",209,East Avenue A,Temple,,Texas,Bell County,United States,76501
Thames Valley Police,United Kingdom,55.378051,-3.435973,United Kingdom,ChIJqZHHQhE7WgIReiWIMkOg-MQ,"country,political",,,,,,,United Kingdom,
Tokyo Metropolitan Police Department,Japan,35.6764225,139.650027,"Tokyo, Japan",ChIJ51cu8IcbXWARiRtXIothAS4,"administrative_area_level_1,political",,,,,Tokyo,,Japan,
Toledo Police Department,"Ohio, USA",41.6925151,-83.6002133,"2300 W Sylvania Ave, Toledo, OH 43613, USA",ChIJ32HsKXt_PIgRz674RjYmU_Q,"establishment,point_of_interest",2300,West Sylvania Avenue,Toledo,,Ohio,Lucas County,United States,43613
Torrance Police Department,"California, USA",33.8398938,-118.3423068,"3300 Civic Center Dr N, Torrance, CA 90503, USA",ChIJfeyVXyq1woARLDCJTXt0ZC8,"establishment,local_government_office,point_of_interest,police",3300,Civic Center Drive,Torrance,,California,Los Angeles County,United States,90503
Transport for London,"London, United Kingdom",51.5072178,-0.1275862,"London, UK",ChIJdd4hrwug2EcRmSrV3Vo6llI,"locality,political",,,London,,England,Greater London,United Kingdom,
Troy Police Department,"Michigan, USA",42.5646151,-83.15564789999999,"500 W Big Beaver Rd, Troy, MI 48084, USA",ChIJd53NJBjEJIgRrJ7ORVaaMD0,"establishment,local_government_office,point_of_interest",500,West Big Beaver Road,Troy,,Michigan,Oakland County,United States,48084
Tucson Police Department,"Arizona, USA",32.2179296,-110.9711852,"270 S Stone Ave, Tucson, AZ 85701, USA",ChIJBRGlMeFw1oYRr6FoZe759V4,"establishment,local_government_office,point_of_interest,police",270,South Stone Avenue,Tucson,,Arizona,Pima County,United States,85701
Tukwila Police Department,"Washington, USA",47.4682328,-122.2878586,"15005 Tukwila International Blvd, Tukwila, WA 98168, USA",ChIJ4Zi7tMFDkFQRYwiLtI-RqEg,"establishment,local_government_office,point_of_interest,police",15005,Tukwila International Boulevard,Tukwila,,Washington,King County,United States,98168
Tustin Police Department,"California, USA",33.7435228,-117.8193329,"300 Centennial Way, Tustin, CA 92780, USA",ChIJ1aOFLN3b3IAR5a4h4hXmUkw,"establishment,point_of_interest,police",300,Centennial Way,Tustin,,California,Orange County,United States,92780
Twin Falls Police Department,"Idaho, USA",42.5545862,-114.4650884,"321 2nd Ave E, Twin Falls, ID 83301, USA",ChIJd6ti7KOjrFQRZCzmrdOYUAM,"establishment,point_of_interest,police",321,2nd Avenue East,Twin Falls,,Idaho,Twin Falls County,United States,83301
Union County Sheriff's Office,"Ohio, USA",40.2361076,-83.369294,"221 W 5th St, Marysville, OH 43040, USA",ChIJ92blTFfEOIgRTRUZrdRjwC4,"establishment,local_government_office,point_of_interest,police",221,West 5th Street,Marysville,,Ohio,Union County,United States,43040
United States Custom Service,"Washington, DC, USA",38.9071923,-77.0368707,"Washington, DC, USA",ChIJW-T2Wt7Gt4kRKl2I1CJFUsI,"locality,political",,,Washington,,District of Columbia,District of Columbia,United States,
University of Alabama at Birmingham Police,"Alabama, USA",33.5020323,-86.80574949999999,"1720 University Blvd, Birmingham, AL 35294, USA",ChIJRxq4YekbiYgRS7BbCPlZxlE,"establishment,point_of_interest,university",1720,University Boulevard,Birmingham,,Alabama,Jefferson County,United States,35294
University of Alaska-Fairbanks Police Department,"Alaska, USA",64.8555748,-147.8340598,"505 S Chandalar, Fairbanks, AK 99775, USA",ChIJe1F2jzVbMlERFRZZBKmsSSw,"establishment,point_of_interest,school,university",505,South Chandalar,Fairbanks,,Alaska,Fairbanks North Star Borough,United States,99775
University of Cincinnati Police Division,"Ohio, USA",39.1329219,-84.51495039999999,"2600 Clifton Ave, Cincinnati, OH 45221, USA",ChIJJexly4qzQYgR_MXAgSe0SUI,"establishment,point_of_interest,university",2600,Clifton Avenue,Cincinnati,,Ohio,Hamilton County,United States,45221
University of Texas at Austin Police Department,"Texas, USA",30.2850284,-97.7335226,"2515 Speedway, Austin, TX 78712, USA",ChIJt8-EJZu1RIYR3iFKF0_uMYE,"establishment,point_of_interest,university",2515,Speedway,Austin,,Texas,Travis County,United States,78712
University of Wisconsin-Madison Police Department,"Wisconsin, USA",43.0693362,-89.4099973,"Police and Security Facility, 1429 Monroe St, Madison, WI 53711, USA",ChIJpxPkrsWsB4gRQv1teti30tc,"establishment,point_of_interest,police",1429,Monroe Street,Madison,,Wisconsin,Dane County,United States,53711
Vallejo Police Department,"California, USA",38.0999324,-122.243675,"111 Amador St, Vallejo, CA 94590, USA",ChIJMzy-0HJzhYARs_j3zBpfCLk,"establishment,local_government_office,point_of_interest",111,Amador Street,Vallejo,,California,Solano County,United States,94590
Ventura Police Department,"California, USA",34.2598139,-119.2232818,"1425 Dowell Dr, Ventura, CA 93003, USA",ChIJA7iIslFN6IAR6oeAA5DKW1s,"establishment,point_of_interest,police",1425,Dowell Drive,Ventura,,California,Ventura County,United States,93003
Vestfold Police District,Norway,59.2690674,10.4075547,"Tollbodgaten 9, 3111 Tønsberg, Norway",ChIJKcDW2xW3RkYRsBwbJNZSt6M,"establishment,point_of_interest,police",9,Tollbodgaten,,,Vestfold,Tønsberg,Norway,3111
Victoria Police Department,"British Columbia, Canada",48.4311352,-123.3591966,"850 Caledonia Ave, Victoria, BC V8T 5J8, Canada",ChIJPe_2B5B0j1QRxnMMKyX0Ztw,"establishment,point_of_interest,police",850,Caledonia Avenue,Victoria,,British Columbia,Capital Regional District,Canada,V8T 5J8
Virginia Beach Police Department,"Virginia, USA",36.7535789,-76.0581837,"2509 Princess Anne Rd, Virginia Beach, VA 23456, USA",ChIJ0Z33k-vAuokRhBhHUMznyjA,"establishment,point_of_interest,police",2509,Princess Anne Road,Virginia Beach,,Virginia,,United States,23456
Warwickshire Police,United Kingdom,52.2834611,-1.5889008,"Police Station, Priory Rd, Warwick CV34 4NA, UK",ChIJO8zc8UbLcEgRNS5OftlKqHE,"establishment,point_of_interest,police",,Priory Road,,,England,Warwickshire,United Kingdom,CV34 4NA
Washington State Patrol,USA,47.7510741,-120.7401386,"Washington, USA",ChIJ-bDD5__lhVQRuvNfbGh4QpQ,"administrative_area_level_1,political",,,,,Washington,,United States,
Washoe County Sheriff's Office,"Nevada, USA",39.5733505,-119.8106767,"911 E Parr Blvd, Reno, NV 89512, USA",ChIJoWNjQ71HmYARpxzk59mX_Oo,"establishment,local_government_office,point_of_interest,police",911,East Parr Boulevard,Reno,,Nevada,Washoe County,United States,89512
Washtenaw County Sheriff's Office,"Michigan, USA",42.2554983,-83.6783489,"2201 Hogback Rd, Ann Arbor, MI 48105, USA",ChIJU3E4uyuvPIgRMwvsVmYSRKo,"establishment,local_government_office,point_of_interest,police",2201,Hogback Road,Ann Arbor,,Michigan,Washtenaw County,United States,48105
Waterloo Regional Police,"Ontaorio, Canada",43.4757989,-80.54384499999999,"Waterloo Regional Municipality, ON, Canada",ChIJzVW-r9J0LIgROw_vzdZHqoM,"administrative_area_level_2,political",,,,,Ontario,Waterloo Regional Municipality,Canada,
Waukesha Police Department,"Wisconsin, USA",43.0107836,-88.2291729,"Waukesha, WI, USA",ChIJV5eOlCamBYgRlZyYYTShLas,"locality,political",,,Waukesha,,Wisconsin,Waukesha County,United States,
West Columbia Police Department,"South Carolina, USA",33.991065,-81.07305579999999,"200 N 12th St, West Columbia, SC 29169, USA",ChIJ05fFGF-7-IgRAy5QGjnhw70,"city_hall,establishment,local_government_office,point_of_interest,police",200,North 12th Street,West Columbia,,South Carolina,Lexington County,United States,29169
West Covina Police Department,"California, USA",34.0710514,-117.938331,"1444 W Garvey Ave S, West Covina, CA 91790, USA",ChIJV_sEhs_XwoARpjzFaNXqyes,"establishment,point_of_interest,police",1444,West Garvey Avenue South,West Covina,,California,Los Angeles County,United States,91790
West Mercia Police,United Kingdom,52.2253208,-2.1751191,"Hindlip, Worcester WR3 8SP, UK",ChIJ9ZIlvNrxcEgRxlVRQ0lo4u4,"establishment,point_of_interest,police",,,Hindlip,,England,Worcestershire,United Kingdom,WR3 8SP
West Midlands Police,United Kingdom,55.378051,-3.435973,United Kingdom,ChIJqZHHQhE7WgIReiWIMkOg-MQ,"country,political",,,,,,,United Kingdom,
West Palm Beach Police Department,"Florida, USA",26.7142398,-80.0574494,"600 Banyan Blvd, West Palm Beach, FL 33401, USA",ChIJk3qOpWPW2IgRdHl2cnmDuYM,"establishment,point_of_interest,police",600,Banyan Boulevard,West Palm Beach,,Florida,Palm Beach County,United States,33401
West Virginia University Department of Public Safety,"West Virginia, USA",39.6480359,-79.9697147,"Morgantown, WV 26506, USA",ChIJ7dQgR3x7NYgRMNj61lX1ck0,"establishment,point_of_interest,university",,,Morgantown,,West Virginia,Monongalia County,United States,26506
West Yorkshire Police,United Kingdom,53.81081760000001,-1.76261,"West Yorkshire, UK",ChIJ8RhrwDkTeUgRlMFjPKK1F2U,"administrative_area_level_2,political",,,,,England,West Yorkshire,United Kingdom,
Westfield Police Department,"Massachusetts, USA",42.121587,-72.751886,"15 Washington St, Westfield, MA 01085, USA",ChIJL3-nNlge54kRufHdVMZGwTU,"establishment,point_of_interest,police",15,Washington Street,Westfield,,Massachusetts,Hampden County,United States,01085
Westminster Police Department,"California, USA",33.7571107,-117.9858519,"8200 Westminster Blvd., Westminster, CA 92683, USA",ChIJEduzZiYm3YARmvax9a2G9So,"establishment,point_of_interest,police",8200,Westminster Boulevard,Westminster,,California,Orange County,United States,92683
White Plains Police Department,"New York, USA",41.03398620000001,-73.7629097,"White Plains, NY, USA",ChIJ2TWj4iKUwokRbPxbGhAEFFQ,"locality,political",,,White Plains,,New York,Westchester County,United States,
Wichita Police Department,"Kansas, USA",37.68717609999999,-97.330053,"Wichita, KS, USA",ChIJLRh_0mrbuocRPj3TdL_VlpM,"locality,political",,,Wichita,,Kansas,Sedgwick County,United States,
Wilmington Police Department,"North Carolina, USA",34.2103894,-77.8868117,"Wilmington, NC, USA",ChIJ1a7rDaL1qYkRMjAJhDhJZl4,"locality,political",,,Wilmington,,North Carolina,New Hanover County,United States,
Wilson County Sheriff's Department,"Tennessee, USA",36.2130124,-86.289845,"105 E High St, Lebanon, TN 37087, USA",ChIJO5hsGi8gZIgRwwm25Ikfqwg,"establishment,local_government_office,point_of_interest,police",105,East High Street,Lebanon,,Tennessee,Wilson County,United States,37087
Winnipeg Police Service,"Manitoba, Canada",49.8922524,-97.1410313,"245 Smith St, Winnipeg, MB R3C 1K1, Canada",ChIJp5YCerpx6lIRcgFf2abyCPk,"establishment,point_of_interest,police",245,Smith Street,Winnipeg,,Manitoba,Winnipeg,Canada,R3C 1K1
Winston Salem Police Department,"North Carolina, USA",36.103959,-80.2483345,"725 N Cherry St, Winston-Salem, NC 27101, USA",ChIJJRVo-2muU4gRestLNTiOI-Y,"establishment,local_government_office,point_of_interest,police",725,North Cherry Street,Winston-Salem,,North Carolina,Forsyth County,United States,27101
Wisconsin Department of Natural Resources,USA,43.0343862,-87.9250546,"1027 W St Paul Ave, Milwaukee, WI 53233, USA",ChIJnQKynz8ZBYgRhNn1NeIeTd8,"establishment,local_government_office,point_of_interest",1027,West Saint Paul Avenue,Milwaukee,,Wisconsin,Milwaukee County,United States,53233
Woodbury Police Department,"Minnesota, USA",44.9238552,-92.9593797,"Woodbury, MN, USA",ChIJq5WdlOnZ94cREIwdp_0Er4s,"locality,political",,,Woodbury,,Minnesota,Washington County,United States,
Worcester Police Department,"Massachusetts, USA",42.270917,-71.7981107,"9-11 Lincoln Square, Worcester, MA 01608, USA",ChIJV2ddbWYG5IkRKycyMQ3cu_I,"establishment,point_of_interest,police",9-11,Lincoln Square,Worcester,,Massachusetts,Worcester County,United States,01608
